{
"type": "FeatureCollection",
"name": "Zambia_irrigated",
"crs": { "type": "name", "properties": { "name": "urn:ogc:def:crs:OGC:1.3:CRS84" } },
"features": [
{ "type": "Feature", "properties": { "id": "0", "layer": "polys_Zambia_irrig_blue_01", "path": "C:/Users/hssid/Downloads/drive-download-20250227T154022Z-001/polys_Zambia_irrig_blue_01.geojson" }, "geometry": { "type": "Polygon", "coordinates": [ [ [ 31.55909512483932, -14.125936630070017 ], [ 31.559081713794249, -14.126019865363713 ], [ 31.559315065978545, -14.126017264261234 ], [ 31.559462587474357, -14.126030269773288 ], [ 31.559465269683379, -14.125939231173396 ], [ 31.559333841441649, -14.125926225656167 ], [ 31.55909512483932, -14.125936630070017 ] ] ] } },
{ "type": "Feature", "properties": { "id": "1", "layer": "polys_Zambia_irrig_blue_01", "path": "C:/Users/hssid/Downloads/drive-download-20250227T154022Z-001/polys_Zambia_irrig_blue_01.geojson" }, "geometry": { "type": "Polygon", "coordinates": [ [ [ 31.559524278281707, -14.125439818777906 ], [ 31.559510867236629, -14.12551785203692 ], [ 31.559843461154475, -14.125676519581086 ], [ 31.559872965453646, -14.125588081947164 ], [ 31.559524278281707, -14.125439818777906 ] ] ] } },
{ "type": "Feature", "properties": { "id": "2", "layer": "polys_Zambia_irrig_blue_01", "path": "C:/Users/hssid/Downloads/drive-download-20250227T154022Z-001/polys_Zambia_irrig_blue_01.geojson" }, "geometry": { "type": "Polygon", "coordinates": [ [ [ 31.558070520995631, -14.125679120687458 ], [ 31.558566729663397, -14.125809175967563 ], [ 31.558641831515796, -14.12560628969813 ], [ 31.558250228999629, -14.125536059793506 ], [ 31.558065156577605, -14.125637502982128 ], [ 31.558070520995631, -14.125679120687458 ] ] ] } },
{ "type": "Feature", "properties": { "id": "3", "layer": "polys_Zambia_irrig_blue_01", "path": "C:/Users/hssid/Downloads/drive-download-20250227T154022Z-001/polys_Zambia_irrig_blue_01.geojson" }, "geometry": { "type": "Polygon", "coordinates": [ [ [ 31.557096879123229, -14.125294156622882 ], [ 31.557188074229735, -14.125374791041649 ], [ 31.557697693942568, -14.125468430975991 ], [ 31.557724516032717, -14.125343577721635 ], [ 31.557442884086147, -14.125252538847173 ], [ 31.55747238838531, -14.125049652081701 ], [ 31.55739728653289, -14.12504444985457 ], [ 31.557327549098503, -14.125242134402061 ], [ 31.557134430049434, -14.125216123287196 ], [ 31.557096879123229, -14.125294156622882 ] ] ] } },
{ "type": "Feature", "properties": { "id": "4", "layer": "polys_Zambia_irrig_blue_01", "path": "C:/Users/hssid/Downloads/drive-download-20250227T154022Z-001/polys_Zambia_irrig_blue_01.geojson" }, "geometry": { "type": "Polygon", "coordinates": [ [ [ 31.558421890376582, -14.12522912884501 ], [ 31.558403114913478, -14.125309763286801 ], [ 31.558663289187923, -14.125373754020242 ], [ 31.558706204532161, -14.125241097380055 ], [ 31.558421890376582, -14.12522912884501 ] ] ] } },
{ "type": "Feature", "properties": { "id": "5", "layer": "polys_Zambia_irrig_blue_01", "path": "C:/Users/hssid/Downloads/drive-download-20250227T154022Z-001/polys_Zambia_irrig_blue_01.geojson" }, "geometry": { "type": "Polygon", "coordinates": [ [ [ 31.559635589955825, -14.125614356552772 ], [ 31.559543053744804, -14.125752215186555 ], [ 31.559608767865665, -14.125802936738342 ], [ 31.559720079539783, -14.125645569835651 ], [ 31.559635589955825, -14.125614356552772 ] ] ] } },
{ "type": "Feature", "properties": { "id": "6", "layer": "polys_Zambia_irrig_blue_01", "path": "C:/Users/hssid/Downloads/drive-download-20250227T154022Z-001/polys_Zambia_irrig_blue_01.geojson" }, "geometry": { "type": "Polygon", "coordinates": [ [ [ 31.55799407803871, -14.125246299602699 ], [ 31.558098684190295, -14.125441382865887 ], [ 31.55838299834587, -14.125272310714118 ], [ 31.55799407803871, -14.125246299602699 ] ] ] } },
{ "type": "Feature", "properties": { "id": "0", "layer": "polys_Zambia_irrig_blue_02", "path": "C:/Users/hssid/Downloads/drive-download-20250227T154022Z-001/polys_Zambia_irrig_blue_02.geojson" }, "geometry": { "type": "Polygon", "coordinates": [ [ [ 31.64996412137727, -14.141102246430183 ], [ 31.650174674784946, -14.141154265025131 ], [ 31.65024441221934, -14.140944890108015 ], [ 31.650150534903815, -14.140921481720202 ], [ 31.64996412137727, -14.141102246430183 ] ] ] } },
{ "type": "Feature", "properties": { "id": "1", "layer": "polys_Zambia_irrig_blue_02", "path": "C:/Users/hssid/Downloads/drive-download-20250227T154022Z-001/polys_Zambia_irrig_blue_02.geojson" }, "geometry": { "type": "Polygon", "coordinates": [ [ [ 31.650381204879096, -14.140470219550952 ], [ 31.650257823264408, -14.140485825174055 ], [ 31.650112983977603, -14.140678294437642 ], [ 31.650188085830024, -14.140714707523253 ], [ 31.650493857657722, -14.140576857954168 ], [ 31.650713798796943, -14.140316764200042 ], [ 31.650542137419997, -14.140249139775252 ], [ 31.650381204879096, -14.140470219550952 ] ] ] } },
{ "type": "Feature", "properties": { "id": "2", "layer": "polys_Zambia_irrig_blue_02", "path": "C:/Users/hssid/Downloads/drive-download-20250227T154022Z-001/polys_Zambia_irrig_blue_02.geojson" }, "geometry": { "type": "Polygon", "coordinates": [ [ [ 31.650757943826175, -14.140326433344853 ], [ 31.650969838338348, -14.140516301806615 ], [ 31.651154973366459, -14.140334296870602 ], [ 31.650811699425983, -14.140214027085214 ], [ 31.650757943826175, -14.140326433344853 ] ] ] } },
{ "type": "Feature", "properties": { "id": "3", "layer": "polys_Zambia_irrig_blue_02", "path": "C:/Users/hssid/Downloads/drive-download-20250227T154022Z-001/polys_Zambia_irrig_blue_02.geojson" }, "geometry": { "type": "Polygon", "coordinates": [ [ [ 31.650544708209491, -14.140682761697464 ], [ 31.650609081225838, -14.14071397291344 ], [ 31.650688206391781, -14.140604733638799 ], [ 31.650638585525009, -14.140583926151965 ], [ 31.650544708209491, -14.140682761697464 ] ] ] } },
{ "type": "Feature", "properties": { "id": "0", "layer": "polys_Zambia_irrig_blue_03", "path": "C:/Users/hssid/Downloads/drive-download-20250227T154022Z-001/polys_Zambia_irrig_blue_03.geojson" }, "geometry": { "type": "Polygon", "coordinates": [ [ [ 31.64996412137727, -14.141102246430183 ], [ 31.650174674784946, -14.141154265025131 ], [ 31.65024441221934, -14.140944890108015 ], [ 31.650150534903815, -14.140921481720202 ], [ 31.64996412137727, -14.141102246430183 ] ] ] } },
{ "type": "Feature", "properties": { "id": "1", "layer": "polys_Zambia_irrig_blue_03", "path": "C:/Users/hssid/Downloads/drive-download-20250227T154022Z-001/polys_Zambia_irrig_blue_03.geojson" }, "geometry": { "type": "Polygon", "coordinates": [ [ [ 31.650381204879096, -14.140470219550952 ], [ 31.650257823264408, -14.140485825174055 ], [ 31.650112983977603, -14.140678294437642 ], [ 31.650188085830024, -14.140714707523253 ], [ 31.650493857657722, -14.140576857954168 ], [ 31.650713798796943, -14.140316764200042 ], [ 31.650542137419997, -14.140249139775252 ], [ 31.650381204879096, -14.140470219550952 ] ] ] } },
{ "type": "Feature", "properties": { "id": "2", "layer": "polys_Zambia_irrig_blue_03", "path": "C:/Users/hssid/Downloads/drive-download-20250227T154022Z-001/polys_Zambia_irrig_blue_03.geojson" }, "geometry": { "type": "Polygon", "coordinates": [ [ [ 31.650757943826175, -14.140326433344853 ], [ 31.650969838338348, -14.140516301806615 ], [ 31.651154973366459, -14.140334296870602 ], [ 31.650811699425983, -14.140214027085214 ], [ 31.650757943826175, -14.140326433344853 ] ] ] } },
{ "type": "Feature", "properties": { "id": "3", "layer": "polys_Zambia_irrig_blue_03", "path": "C:/Users/hssid/Downloads/drive-download-20250227T154022Z-001/polys_Zambia_irrig_blue_03.geojson" }, "geometry": { "type": "Polygon", "coordinates": [ [ [ 31.650544708209491, -14.140682761697464 ], [ 31.650609081225838, -14.14071397291344 ], [ 31.650688206391781, -14.140604733638799 ], [ 31.650638585525009, -14.140583926151965 ], [ 31.650544708209491, -14.140682761697464 ] ] ] } },
{ "type": "Feature", "properties": { "id": "0", "layer": "polys_Zambia_irrig_blue_04", "path": "C:/Users/hssid/Downloads/drive-download-20250227T154022Z-001/polys_Zambia_irrig_blue_04.geojson" }, "geometry": { "type": "Polygon", "coordinates": [ [ [ 31.670293463314003, -14.17324661892277 ], [ 31.670622033918338, -14.173162100642019 ], [ 31.670584482992133, -14.172826627770977 ], [ 31.670360518539379, -14.172825327487567 ], [ 31.670293463314003, -14.17324661892277 ] ] ] } },
{ "type": "Feature", "properties": { "id": "1", "layer": "polys_Zambia_irrig_blue_04", "path": "C:/Users/hssid/Downloads/drive-download-20250227T154022Z-001/polys_Zambia_irrig_blue_04.geojson" }, "geometry": { "type": "Polygon", "coordinates": [ [ [ 31.667866333793285, -14.173004127141205 ], [ 31.667883768151889, -14.173099047735811 ], [ 31.668063476155876, -14.173109449990347 ], [ 31.668078228305461, -14.173000226294002 ], [ 31.667866333793285, -14.173004127141205 ] ] ] } },
{ "type": "Feature", "properties": { "id": "2", "layer": "polys_Zambia_irrig_blue_04", "path": "C:/Users/hssid/Downloads/drive-download-20250227T154022Z-001/polys_Zambia_irrig_blue_04.geojson" }, "geometry": { "type": "Polygon", "coordinates": [ [ [ 31.666141852080298, -14.173107132634481 ], [ 31.666279985844561, -14.17319165093571 ], [ 31.66636983984657, -14.173200752904737 ], [ 31.666375204264593, -14.17306422333103 ], [ 31.666172697483969, -14.173047319663809 ], [ 31.666141852080298, -14.173107132634481 ] ] ] } },
{ "type": "Feature", "properties": { "id": "3", "layer": "polys_Zambia_irrig_blue_04", "path": "C:/Users/hssid/Downloads/drive-download-20250227T154022Z-001/polys_Zambia_irrig_blue_04.geojson" }, "geometry": { "type": "Polygon", "coordinates": [ [ [ 31.664968550186416, -14.173640614581675 ], [ 31.664819687586089, -14.173781044642338 ], [ 31.664909541588088, -14.17394878043425 ], [ 31.665169715862532, -14.174137320517387 ], [ 31.66530248520877, -14.174026797039369 ], [ 31.66522336004283, -14.173878565466685 ], [ 31.665066450815463, -14.173742036300876 ], [ 31.664968550186416, -14.173640614581675 ] ] ] } },
{ "type": "Feature", "properties": { "id": "0", "layer": "polys_Zambia_irrig_blue_05", "path": "C:/Users/hssid/Downloads/drive-download-20250227T154022Z-001/polys_Zambia_irrig_blue_05.geojson" }, "geometry": { "type": "Polygon", "coordinates": [ [ [ 31.739708941469466, -14.423846318854777 ], [ 31.739971797952926, -14.424048936604725 ], [ 31.740143459329879, -14.423757998239426 ], [ 31.739875238428386, -14.423607333579499 ], [ 31.739708941469466, -14.423846318854777 ] ] ] } },
{ "type": "Feature", "properties": { "id": "1", "layer": "polys_Zambia_irrig_blue_05", "path": "C:/Users/hssid/Downloads/drive-download-20250227T154022Z-001/polys_Zambia_irrig_blue_05.geojson" }, "geometry": { "type": "Polygon", "coordinates": [ [ [ 31.739366264607419, -14.424414581153551 ], [ 31.739480953703197, -14.424345069907751 ], [ 31.739373665342594, -14.424191807984286 ], [ 31.739242237100871, -14.424287921406258 ], [ 31.739366264607419, -14.424414581153551 ] ] ] } },
{ "type": "Feature", "properties": { "id": "2", "layer": "polys_Zambia_irrig_blue_05", "path": "C:/Users/hssid/Downloads/drive-download-20250227T154022Z-001/polys_Zambia_irrig_blue_05.geojson" }, "geometry": { "type": "Polygon", "coordinates": [ [ [ 31.738953204419115, -14.424814620128759 ], [ 31.738996119763371, -14.424905537977491 ], [ 31.739360900189389, -14.42466655383857 ], [ 31.739293844964013, -14.424593819484532 ], [ 31.738953204419115, -14.424814620128759 ] ] ] } },
{ "type": "Feature", "properties": { "id": "3", "layer": "polys_Zambia_irrig_blue_05", "path": "C:/Users/hssid/Downloads/drive-download-20250227T154022Z-001/polys_Zambia_irrig_blue_05.geojson" }, "geometry": { "type": "Polygon", "coordinates": [ [ [ 31.738599152829163, -14.424884756758198 ], [ 31.738593788411123, -14.424947100410249 ], [ 31.738658161427484, -14.425061397060379 ], [ 31.738821776177392, -14.424965283972142 ], [ 31.738690347935663, -14.4248561825785 ], [ 31.738599152829163, -14.424884756758198 ] ] ] } },
{ "type": "Feature", "properties": { "id": "4", "layer": "polys_Zambia_irrig_blue_05", "path": "C:/Users/hssid/Downloads/drive-download-20250227T154022Z-001/polys_Zambia_irrig_blue_05.geojson" }, "geometry": { "type": "Polygon", "coordinates": [ [ [ 31.73772743489932, -14.425165303055065 ], [ 31.737719388272279, -14.425354931370396 ], [ 31.737740845944391, -14.425464032519768 ], [ 31.738242419030172, -14.425378310192615 ], [ 31.738140495087613, -14.425212060736859 ], [ 31.737990291382786, -14.425261416056978 ], [ 31.737869591977102, -14.425110752413897 ], [ 31.73772743489932, -14.425165303055065 ] ] ] } },
{ "type": "Feature", "properties": { "id": "5", "layer": "polys_Zambia_irrig_blue_05", "path": "C:/Users/hssid/Downloads/drive-download-20250227T154022Z-001/polys_Zambia_irrig_blue_05.geojson" }, "geometry": { "type": "Polygon", "coordinates": [ [ [ 31.738030524518003, -14.424967881623731 ], [ 31.738070757653226, -14.425022432299876 ], [ 31.738218279149034, -14.424957491017238 ], [ 31.738269241120317, -14.4248561825785 ], [ 31.738212914731015, -14.424837999007698 ], [ 31.738156588341699, -14.424921123890686 ], [ 31.738030524518003, -14.424967881623731 ] ] ] } },
{ "type": "Feature", "properties": { "id": "0", "layer": "polys_Zambia_irrig_blue_06", "path": "C:/Users/hssid/Downloads/drive-download-20250227T154022Z-001/polys_Zambia_irrig_blue_06.geojson" }, "geometry": { "type": "Polygon", "coordinates": [ [ [ 31.931847728183882, -14.386043496574111 ], [ 31.931764579704424, -14.386825524777425 ], [ 31.932534373691695, -14.386685227560413 ], [ 31.932596064499037, -14.386277325891943 ], [ 31.931847728183882, -14.386043496574111 ] ] ] } },
{ "type": "Feature", "properties": { "id": "1", "layer": "polys_Zambia_irrig_blue_06", "path": "C:/Users/hssid/Downloads/drive-download-20250227T154022Z-001/polys_Zambia_irrig_blue_06.geojson" }, "geometry": { "type": "Polygon", "coordinates": [ [ [ 31.933469930033134, -14.386788956845235 ], [ 31.933494069914271, -14.387300781214288 ], [ 31.93393931661074, -14.387742456123002 ], [ 31.934566953520225, -14.387500834075261 ], [ 31.934306779245784, -14.386588903346677 ], [ 31.933469930033134, -14.386788956845235 ] ] ] } },
{ "type": "Feature", "properties": { "id": "0", "layer": "polys_Zambia_irrig_blue_07", "path": "C:/Users/hssid/Downloads/drive-download-20250227T154022Z-001/polys_Zambia_irrig_blue_07.geojson" }, "geometry": { "type": "Polygon", "coordinates": [ [ [ 32.004996116022731, -14.380958674006106 ], [ 32.004977340559634, -14.381070395031141 ], [ 32.005149001936587, -14.381098974819276 ], [ 32.005246902565631, -14.381193807726421 ], [ 32.00539978847948, -14.381209396693606 ], [ 32.005414540629062, -14.381144442656487 ], [ 32.005281771282824, -14.381078189519174 ], [ 32.005183870653788, -14.381008039117095 ], [ 32.004996116022731, -14.380958674006106 ] ] ] } },
{ "type": "Feature", "properties": { "id": "1", "layer": "polys_Zambia_irrig_blue_07", "path": "C:/Users/hssid/Downloads/drive-download-20250227T154022Z-001/polys_Zambia_irrig_blue_07.geojson" }, "geometry": { "type": "Polygon", "coordinates": [ [ [ 32.00750877278216, -14.381910452521804 ], [ 32.007587897948092, -14.381949424812735 ], [ 32.00768848078615, -14.381914349751204 ], [ 32.007716643980807, -14.381780544836255 ], [ 32.007594603470629, -14.381820816226849 ], [ 32.007538277081323, -14.381826012534784 ], [ 32.00750877278216, -14.381910452521804 ] ] ] } },
{ "type": "Feature", "properties": { "id": "0", "layer": "polys_Zambia_irrig_blue_08", "path": "C:/Users/hssid/Downloads/drive-download-20250227T154022Z-001/polys_Zambia_irrig_blue_08.geojson" }, "geometry": { "type": "Polygon", "coordinates": [ [ [ 32.004585437047673, -14.306045340166895 ], [ 32.004582754838658, -14.306125910169712 ], [ 32.004769168365193, -14.306175291770044 ], [ 32.00479867266435, -14.306055736297923 ], [ 32.004585437047673, -14.306045340166895 ] ] ] } },
{ "type": "Feature", "properties": { "id": "1", "layer": "polys_Zambia_irrig_blue_08", "path": "C:/Users/hssid/Downloads/drive-download-20250227T154022Z-001/polys_Zambia_irrig_blue_08.geojson" }, "geometry": { "type": "Polygon", "coordinates": [ [ [ 32.00484671810834, -14.307043117235535 ], [ 32.004814531600161, -14.307173068261564 ], [ 32.004865493571444, -14.307549925811967 ], [ 32.005101527964754, -14.307601906114131 ], [ 32.005098845755739, -14.307282227065336 ], [ 32.004980828559077, -14.307009329956456 ], [ 32.00484671810834, -14.307043117235535 ] ] ] } },
{ "type": "Feature", "properties": { "id": "2", "layer": "polys_Zambia_irrig_blue_08", "path": "C:/Users/hssid/Downloads/drive-download-20250227T154022Z-001/polys_Zambia_irrig_blue_08.geojson" }, "geometry": { "type": "Polygon", "coordinates": [ [ [ 32.004699496799986, -14.308264009302393 ], [ 32.004935531193304, -14.308315989439345 ], [ 32.005004968440225, -14.307874802503186 ], [ 32.004963394200487, -14.307759146454973 ], [ 32.004892315661586, -14.30775914645497 ], [ 32.004874881303003, -14.307688973093319 ], [ 32.004715289866617, -14.307709765202759 ], [ 32.004699496799986, -14.308264009302393 ] ] ] } },
{ "type": "Feature", "properties": { "id": "3", "layer": "polys_Zambia_irrig_blue_08", "path": "C:/Users/hssid/Downloads/drive-download-20250227T154022Z-001/polys_Zambia_irrig_blue_08.geojson" }, "geometry": { "type": "Polygon", "coordinates": [ [ [ 32.004650868580342, -14.308490119528942 ], [ 32.004978098080159, -14.308638262738407 ], [ 32.005053199932576, -14.308651257752125 ], [ 32.005074657604695, -14.308594079686152 ], [ 32.005023695633412, -14.308432941421959 ], [ 32.004642821953297, -14.308315986157826 ], [ 32.004650868580342, -14.308490119528942 ] ] ] } },
{ "type": "Feature", "properties": { "id": "0", "layer": "polys_Zambia_irrig_blue_09", "path": "C:/Users/hssid/Downloads/drive-download-20250227T154022Z-001/polys_Zambia_irrig_blue_09.geojson" }, "geometry": { "type": "Polygon", "coordinates": [ [ [ 31.947029442617083, -14.252145158851976 ], [ 31.947651715108545, -14.252483113769932 ], [ 31.948059410878805, -14.252561103294472 ], [ 31.948499293157244, -14.252420722130863 ], [ 31.948510021993311, -14.252275141572637 ], [ 31.947930664846091, -14.252025574682797 ], [ 31.947801918813379, -14.251677220437369 ], [ 31.947249383756304, -14.251573233991188 ], [ 31.947029442617083, -14.252145158851976 ] ] ] } },
{ "type": "Feature", "properties": { "id": "1", "layer": "polys_Zambia_irrig_blue_09", "path": "C:/Users/hssid/Downloads/drive-download-20250227T154022Z-001/polys_Zambia_irrig_blue_09.geojson" }, "geometry": { "type": "Polygon", "coordinates": [ [ [ 31.950827450582171, -14.253387790596735 ], [ 31.950816721746115, -14.253626957427263 ], [ 31.951009840795177, -14.253632156703375 ], [ 31.95103666288534, -14.253496975485623 ], [ 31.950870365926413, -14.253330598490995 ], [ 31.950827450582171, -14.253387790596735 ] ] ] } },
{ "type": "Feature", "properties": { "id": "2", "layer": "polys_Zambia_irrig_blue_09", "path": "C:/Users/hssid/Downloads/drive-download-20250227T154022Z-001/polys_Zambia_irrig_blue_09.geojson" }, "geometry": { "type": "Polygon", "coordinates": [ [ [ 31.950398297139792, -14.252919854760044 ], [ 31.950848908254287, -14.253039438455096 ], [ 31.95135852796712, -14.253403388441244 ], [ 31.951449723073626, -14.253060235612979 ], [ 31.951406807729388, -14.252919854760044 ], [ 31.950961561032919, -14.252883459709821 ], [ 31.950805992910052, -14.252691085775446 ], [ 31.950500221082351, -14.252607896996249 ], [ 31.950398297139792, -14.252919854760044 ] ] ] } },
{ "type": "Feature", "properties": { "id": "3", "layer": "polys_Zambia_irrig_blue_09", "path": "C:/Users/hssid/Downloads/drive-download-20250227T154022Z-001/polys_Zambia_irrig_blue_09.geojson" }, "geometry": { "type": "Polygon", "coordinates": [ [ [ 31.949759931394244, -14.252384327000122 ], [ 31.949421973058371, -14.252290739494091 ], [ 31.949261040517477, -14.252373928390261 ], [ 31.948917717763571, -14.252171155402108 ], [ 31.948858709165236, -14.252269942265258 ], [ 31.949046463796279, -14.252509110281091 ], [ 31.949995965787558, -14.252857463241799 ], [ 31.950183720418593, -14.252836666065219 ], [ 31.950280279943133, -14.252509110281091 ], [ 31.949947686025279, -14.25241032352268 ], [ 31.949759931394244, -14.252384327000122 ] ] ] } },
{ "type": "Feature", "properties": { "id": "0", "layer": "polys_Zambia_irrig_blue_10", "path": "C:/Users/hssid/Downloads/drive-download-20250227T154022Z-001/polys_Zambia_irrig_blue_10.geojson" }, "geometry": { "type": "Polygon", "coordinates": [ [ [ 31.992642445185282, -14.189041379564578 ], [ 31.99246005497227, -14.189727879070325 ], [ 31.992975039103122, -14.189904704363753 ], [ 31.993876261332137, -14.18865652287132 ], [ 31.993554396250357, -14.188458893504569 ], [ 31.992642445185282, -14.189041379564578 ] ] ] } },
{ "type": "Feature", "properties": { "id": "1", "layer": "polys_Zambia_irrig_blue_10", "path": "C:/Users/hssid/Downloads/drive-download-20250227T154022Z-001/polys_Zambia_irrig_blue_10.geojson" }, "geometry": { "type": "Polygon", "coordinates": [ [ [ 31.992717547037703, -14.192328237125924 ], [ 31.993286175348857, -14.192421849459389 ], [ 31.993575853922465, -14.191652146902422 ], [ 31.993661684610935, -14.190143938364635 ], [ 31.993232531168562, -14.190154339837211 ], [ 31.993178886988257, -14.190768025873727 ], [ 31.993093056299791, -14.191662548305748 ], [ 31.992717547037703, -14.192328237125924 ] ] ] } },
{ "type": "Feature", "properties": { "id": "2", "layer": "polys_Zambia_irrig_blue_10", "path": "C:/Users/hssid/Downloads/drive-download-20250227T154022Z-001/polys_Zambia_irrig_blue_10.geojson" }, "geometry": { "type": "Polygon", "coordinates": [ [ [ 31.99260489425907, -14.192115008888619 ], [ 31.99296431026707, -14.191579337065699 ], [ 31.992551250078776, -14.191142477554081 ], [ 31.992256207087145, -14.19111647398516 ], [ 31.992390317537883, -14.191776963710915 ], [ 31.992347402193641, -14.192036998507767 ], [ 31.99260489425907, -14.192115008888619 ] ] ] } },
{ "type": "Feature", "properties": { "id": "0", "layer": "polys_Zambia_irrig_blue_11", "path": "C:/Users/hssid/Downloads/drive-download-20250227T154022Z-001/polys_Zambia_irrig_blue_11.geojson" }, "geometry": { "type": "Polygon", "coordinates": [ [ [ 32.112512266011706, -14.347201441577525 ], [ 32.112946783872118, -14.347476888351052 ], [ 32.113075529904833, -14.347430114394529 ], [ 32.113086258740893, -14.347237821359483 ], [ 32.112925326199999, -14.346879220393749 ], [ 32.11241034206914, -14.346915600228034 ], [ 32.112512266011706, -14.347201441577525 ] ] ] } },
{ "type": "Feature", "properties": { "id": "1", "layer": "polys_Zambia_irrig_blue_11", "path": "C:/Users/hssid/Downloads/drive-download-20250227T154022Z-001/polys_Zambia_irrig_blue_11.geojson" }, "geometry": { "type": "Polygon", "coordinates": [ [ [ 32.112925326199999, -14.349451779825893 ], [ 32.113322293134203, -14.349301065037595 ], [ 32.113354479642375, -14.34877096394205 ], [ 32.112930690618029, -14.348869708358842 ], [ 32.112925326199999, -14.349451779825893 ] ] ] } },
{ "type": "Feature", "properties": { "id": "2", "layer": "polys_Zambia_irrig_blue_11", "path": "C:/Users/hssid/Downloads/drive-download-20250227T154022Z-001/polys_Zambia_irrig_blue_11.geojson" }, "geometry": { "type": "Polygon", "coordinates": [ [ [ 32.112378155560961, -14.349799982569644 ], [ 32.112732207150927, -14.349883135383598 ], [ 32.112737571568957, -14.350137790684297 ], [ 32.113247191281779, -14.350215746330701 ], [ 32.113354479642382, -14.349529735711071 ], [ 32.112544452519884, -14.349462173945476 ], [ 32.112378155560961, -14.349799982569644 ] ] ] } },
{ "type": "Feature", "properties": { "id": "0", "layer": "polys_Zambia_irrig_blue_12", "path": "C:/Users/hssid/Downloads/drive-download-20250227T154022Z-001/polys_Zambia_irrig_blue_12.geojson" }, "geometry": { "type": "Polygon", "coordinates": [ [ [ 32.218730076835577, -14.282902652989874 ], [ 32.218097075508069, -14.282881858586444 ], [ 32.218097075508069, -14.283152185681189 ], [ 32.217775210426289, -14.28358886722525 ], [ 32.218665703819234, -14.28470136161552 ], [ 32.219427451179456, -14.284191902250235 ], [ 32.221026047752332, -14.284087930809486 ], [ 32.221208437965345, -14.28339132091741 ], [ 32.220843657539319, -14.282777886540474 ], [ 32.218783721015882, -14.282601133952083 ], [ 32.218730076835577, -14.282902652989874 ] ] ] } },
{ "type": "Feature", "properties": { "id": "0", "layer": "polys_Zambia_irrig_blue_13", "path": "C:/Users/hssid/Downloads/drive-download-20250227T154022Z-001/polys_Zambia_irrig_blue_13.geojson" }, "geometry": { "type": "Polygon", "coordinates": [ [ [ 32.267291894530267, -14.275741410975762 ], [ 32.266068807219469, -14.278028856393219 ], [ 32.265081754301981, -14.278860648964956 ], [ 32.263064733122789, -14.279338928302101 ], [ 32.262893071745836, -14.278340778967753 ], [ 32.262013307188944, -14.278132830632755 ], [ 32.26098333892724, -14.279006212349037 ], [ 32.266133180235826, -14.280919322363626 ], [ 32.266991487120592, -14.278340778967753 ], [ 32.268622270201647, -14.276261286974837 ], [ 32.267892709349596, -14.275367099513236 ], [ 32.267291894530267, -14.275741410975762 ] ] ] } },
{ "type": "Feature", "properties": { "id": "0", "layer": "polys_Zambia_irrig_blue_15", "path": "C:/Users/hssid/Downloads/drive-download-20250227T154022Z-001/polys_Zambia_irrig_blue_15.geojson" }, "geometry": { "type": "Polygon", "coordinates": [ [ [ 31.729030440139557, -14.420716776183276 ], [ 31.728872189807682, -14.420979143843114 ], [ 31.728990207004333, -14.420973948446902 ], [ 31.729051897811676, -14.420932385272893 ], [ 31.72922624139764, -14.421062270165928 ], [ 31.729298661041049, -14.420919396779427 ], [ 31.729030440139557, -14.420716776183276 ] ] ] } },
{ "type": "Feature", "properties": { "id": "1", "layer": "polys_Zambia_irrig_blue_15", "path": "C:/Users/hssid/Downloads/drive-download-20250227T154022Z-001/polys_Zambia_irrig_blue_15.geojson" }, "geometry": { "type": "Polygon", "coordinates": [ [ [ 31.728180132946502, -14.41983000600805 ], [ 31.728424213966854, -14.419991064060961 ], [ 31.728563688835631, -14.419881960231384 ], [ 31.728244505962863, -14.419728695237701 ], [ 31.728180132946502, -14.41983000600805 ] ] ] } },
{ "type": "Feature", "properties": { "id": "2", "layer": "polys_Zambia_irrig_blue_15", "path": "C:/Users/hssid/Downloads/drive-download-20250227T154022Z-001/polys_Zambia_irrig_blue_15.geojson" }, "geometry": { "type": "Polygon", "coordinates": [ [ [ 31.728005789360534, -14.41989494878532 ], [ 31.727936051926147, -14.419954696123705 ], [ 31.727834127983584, -14.419949500703629 ], [ 31.727860950073726, -14.420068995335106 ], [ 31.728048704704772, -14.420152121997461 ], [ 31.728094302258029, -14.420048213664657 ], [ 31.728190861782554, -14.42006120220891 ], [ 31.728209637245666, -14.419959891543684 ], [ 31.728005789360534, -14.41989494878532 ] ] ] } },
{ "type": "Feature", "properties": { "id": "3", "layer": "polys_Zambia_irrig_blue_15", "path": "C:/Users/hssid/Downloads/drive-download-20250227T154022Z-001/polys_Zambia_irrig_blue_15.geojson" }, "geometry": { "type": "Polygon", "coordinates": [ [ [ 31.727879725536834, -14.419539062133513 ], [ 31.727847539028655, -14.419614395851754 ], [ 31.728000424942504, -14.419681936405082 ], [ 31.728016518196593, -14.419580625567422 ], [ 31.727879725536834, -14.419539062133513 ] ] ] } },
{ "type": "Feature", "properties": { "id": "4", "layer": "polys_Zambia_irrig_blue_15", "path": "C:/Users/hssid/Downloads/drive-download-20250227T154022Z-001/polys_Zambia_irrig_blue_15.geojson" }, "geometry": { "type": "Polygon", "coordinates": [ [ [ 31.729297582826817, -14.4160423014772 ], [ 31.72967577429792, -14.416083865563239 ], [ 31.729933266363339, -14.416208557774853 ], [ 31.730064694605069, -14.416115038622689 ], [ 31.730062012396054, -14.415953977768609 ], [ 31.729463879785737, -14.415881240570574 ], [ 31.729297582826817, -14.4160423014772 ] ] ] } },
{ "type": "Feature", "properties": { "id": "5", "layer": "polys_Zambia_irrig_blue_15", "path": "C:/Users/hssid/Downloads/drive-download-20250227T154022Z-001/polys_Zambia_irrig_blue_15.geojson" }, "geometry": { "type": "Polygon", "coordinates": [ [ [ 31.727809787910662, -14.415223597556718 ], [ 31.727933169525343, -14.415301530497951 ], [ 31.728019000213823, -14.415202815434467 ], [ 31.728043140094957, -14.415031362851877 ], [ 31.727943898361403, -14.414992396337455 ], [ 31.727809787910662, -14.415223597556718 ] ] ] } },
{ "type": "Feature", "properties": { "id": "0", "layer": "polys_Zambia_irrig_blue_19", "path": "C:/Users/hssid/Downloads/drive-download-20250227T154022Z-001/polys_Zambia_irrig_blue_19.geojson" }, "geometry": { "type": "Polygon", "coordinates": [ [ [ 31.934932679959918, -14.263432579072864 ], [ 31.935254545041705, -14.263557356239525 ], [ 31.935597867795611, -14.26307904339221 ], [ 31.935479850598945, -14.262943867838336 ], [ 31.934836120435385, -14.263266209409876 ], [ 31.934932679959918, -14.263432579072864 ] ] ] } },
{ "type": "Feature", "properties": { "id": "1", "layer": "polys_Zambia_irrig_blue_19", "path": "C:/Users/hssid/Downloads/drive-download-20250227T154022Z-001/polys_Zambia_irrig_blue_19.geojson" }, "geometry": { "type": "Polygon", "coordinates": [ [ [ 31.933929533788344, -14.263822507489294 ], [ 31.933736414739272, -14.264108454565905 ], [ 31.933811516591692, -14.264274823607172 ], [ 31.934133381673487, -14.264373605167314 ], [ 31.934583992787985, -14.263718526644205 ], [ 31.934487433263445, -14.263604147659205 ], [ 31.933929533788344, -14.263822507489294 ] ] ] } },
{ "type": "Feature", "properties": { "id": "2", "layer": "polys_Zambia_irrig_blue_19", "path": "C:/Users/hssid/Downloads/drive-download-20250227T154022Z-001/polys_Zambia_irrig_blue_19.geojson" }, "geometry": { "type": "Polygon", "coordinates": [ [ [ 31.930370843232868, -14.265816076458233 ], [ 31.930301105798474, -14.26607082707233 ], [ 31.930486178220512, -14.266374967734439 ], [ 31.930802678884266, -14.265956449281227 ], [ 31.930875098527665, -14.265652308054237 ], [ 31.930330610097645, -14.265446947506424 ], [ 31.930370843232868, -14.265816076458233 ] ] ] } },
{ "type": "Feature", "properties": { "id": "3", "layer": "polys_Zambia_irrig_blue_19", "path": "C:/Users/hssid/Downloads/drive-download-20250227T154022Z-001/polys_Zambia_irrig_blue_19.geojson" }, "geometry": { "type": "Polygon", "coordinates": [ [ [ 31.932605123342274, -14.264114698901205 ], [ 31.932515269340275, -14.264255072783977 ], [ 31.932611828864811, -14.264372050952828 ], [ 31.932680225194694, -14.264349955081146 ], [ 31.932808971227402, -14.26420958125747 ], [ 31.932605123342274, -14.264114698901205 ] ] ] } },
{ "type": "Feature", "properties": { "id": "0", "layer": "polys_Zambia_irrig_purple_01", "path": "C:/Users/hssid/Downloads/drive-download-20250227T154022Z-001/polys_Zambia_irrig_purple_01.geojson" }, "geometry": { "type": "Polygon", "coordinates": [ [ [ 30.830363550442609, -14.661278095386738 ], [ 30.830444016713056, -14.661392269798959 ], [ 30.83076588179485, -14.661163920914975 ], [ 30.830680051106363, -14.661065315641469 ], [ 30.830363550442609, -14.661278095386738 ] ] ] } },
{ "type": "Feature", "properties": { "id": "1", "layer": "polys_Zambia_irrig_purple_01", "path": "C:/Users/hssid/Downloads/drive-download-20250227T154022Z-001/polys_Zambia_irrig_purple_01.geojson" }, "geometry": { "type": "Polygon", "coordinates": [ [ [ 30.830146291512399, -14.661527203118487 ], [ 30.83017043139353, -14.661579100526938 ], [ 30.830309906262304, -14.661485685182877 ], [ 30.830272355336103, -14.661449356982756 ], [ 30.830146291512399, -14.661527203118487 ] ] ] } },
{ "type": "Feature", "properties": { "id": "2", "layer": "polys_Zambia_irrig_purple_01", "path": "C:/Users/hssid/Downloads/drive-download-20250227T154022Z-001/polys_Zambia_irrig_purple_01.geojson" }, "geometry": { "type": "Polygon", "coordinates": [ [ [ 30.830905356663603, -14.660987469341555 ], [ 30.830975094097997, -14.661101643905296 ], [ 30.831125297802839, -14.660953735936328 ], [ 30.83107701804057, -14.660862915204126 ], [ 30.830905356663603, -14.660987469341555 ] ] ] } },
{ "type": "Feature", "properties": { "id": "3", "layer": "polys_Zambia_irrig_purple_01", "path": "C:/Users/hssid/Downloads/drive-download-20250227T154022Z-001/polys_Zambia_irrig_purple_01.geojson" }, "geometry": { "type": "Polygon", "coordinates": [ [ [ 30.831184306401163, -14.660772094434259 ], [ 30.831396200913339, -14.660715007073943 ], [ 30.831331827896978, -14.660569693725936 ], [ 30.831157484311017, -14.660637160649493 ], [ 30.831184306401163, -14.660772094434259 ] ] ] } },
{ "type": "Feature", "properties": { "id": "4", "layer": "polys_Zambia_irrig_purple_01", "path": "C:/Users/hssid/Downloads/drive-download-20250227T154022Z-001/polys_Zambia_irrig_purple_01.geojson" }, "geometry": { "type": "Polygon", "coordinates": [ [ [ 30.831693926113996, -14.660665704341671 ], [ 30.831712701577093, -14.660808422746733 ], [ 30.831940689343362, -14.660821397142575 ], [ 30.832149901646524, -14.660766904674855 ], [ 30.832144537228498, -14.660657919698714 ], [ 30.832047977703958, -14.660676083865177 ], [ 30.831951418179422, -14.6606345657682 ], [ 30.83183340098277, -14.660699437791264 ], [ 30.831693926113996, -14.660665704341671 ] ] ] } },
{ "type": "Feature", "properties": { "id": "5", "layer": "polys_Zambia_irrig_purple_01", "path": "C:/Users/hssid/Downloads/drive-download-20250227T154022Z-001/polys_Zambia_irrig_purple_01.geojson" }, "geometry": { "type": "Polygon", "coordinates": [ [ [ 30.830529847401529, -14.661714033731345 ], [ 30.83058349158183, -14.661716628599859 ], [ 30.830645182389173, -14.66159596718204 ], [ 30.830579468268304, -14.661580397961998 ], [ 30.830529847401529, -14.661714033731345 ] ] ] } },
{ "type": "Feature", "properties": { "id": "6", "layer": "polys_Zambia_irrig_purple_01", "path": "C:/Users/hssid/Downloads/drive-download-20250227T154022Z-001/polys_Zambia_irrig_purple_01.geojson" }, "geometry": { "type": "Polygon", "coordinates": [ [ [ 30.830019013245664, -14.661758455677047 ], [ 30.830079446398958, -14.661701116282975 ], [ 30.830055306517821, -14.66165959838033 ], [ 30.829992274605964, -14.661710198323128 ], [ 30.830019013245664, -14.661758455677047 ] ] ] } },
{ "type": "Feature", "properties": { "id": "0", "layer": "polys_Zambia_irrig_purple_02", "path": "C:/Users/hssid/Downloads/drive-download-20250227T154022Z-001/polys_Zambia_irrig_purple_02.geojson" }, "geometry": { "type": "Polygon", "coordinates": [ [ [ 30.999107677364108, -14.394905178875732 ], [ 30.999071467542411, -14.395050666928579 ], [ 30.999133158349743, -14.395063656928677 ], [ 30.99927665653205, -14.394967530909986 ], [ 30.999267268800498, -14.394894786868333 ], [ 30.999107677364108, -14.394905178875732 ] ] ] } },
{ "type": "Feature", "properties": { "id": "1", "layer": "polys_Zambia_irrig_purple_02", "path": "C:/Users/hssid/Downloads/drive-download-20250227T154022Z-001/polys_Zambia_irrig_purple_02.geojson" }, "geometry": { "type": "Polygon", "coordinates": [ [ [ 30.995021932651479, -14.396754082000841 ], [ 30.994866364528612, -14.396855403208422 ], [ 30.994933419753981, -14.397091819180591 ], [ 30.995531552364305, -14.396873589061331 ], [ 30.995515459110212, -14.396663152672813 ], [ 30.995021932651479, -14.396754082000841 ] ] ] } },
{ "type": "Feature", "properties": { "id": "2", "layer": "polys_Zambia_irrig_purple_02", "path": "C:/Users/hssid/Downloads/drive-download-20250227T154022Z-001/polys_Zambia_irrig_purple_02.geojson" }, "geometry": { "type": "Polygon", "coordinates": [ [ [ 30.997049682666727, -14.396261764196488 ], [ 30.997068458129835, -14.396438427174679 ], [ 30.997709506084394, -14.396194216550228 ], [ 30.997658544113118, -14.396079905102303 ], [ 30.997049682666727, -14.396261764196488 ] ] ] } },
{ "type": "Feature", "properties": { "id": "3", "layer": "polys_Zambia_irrig_purple_02", "path": "C:/Users/hssid/Downloads/drive-download-20250227T154022Z-001/polys_Zambia_irrig_purple_02.geojson" }, "geometry": { "type": "Polygon", "coordinates": [ [ [ 30.997194521953539, -14.396500778780656 ], [ 30.997213297416643, -14.396570924316565 ], [ 30.997443967391924, -14.396438427174683 ], [ 30.997398369838667, -14.39642024128633 ], [ 30.997194521953539, -14.396500778780656 ] ] ] } },
{ "type": "Feature", "properties": { "id": "4", "layer": "polys_Zambia_irrig_purple_02", "path": "C:/Users/hssid/Downloads/drive-download-20250227T154022Z-001/polys_Zambia_irrig_purple_02.geojson" }, "geometry": { "type": "Polygon", "coordinates": [ [ [ 30.996266477634393, -14.39651376869638 ], [ 30.996293299724531, -14.397009982910872 ], [ 30.996786826183271, -14.396781360792014 ], [ 30.996628575851396, -14.396581316245936 ], [ 30.996266477634393, -14.39651376869638 ] ] ] } },
{ "type": "Feature", "properties": { "id": "0", "layer": "polys_Zambia_irrig_purple_03", "path": "C:/Users/hssid/Downloads/drive-download-20250227T154022Z-001/polys_Zambia_irrig_purple_03.geojson" }, "geometry": { "type": "Polygon", "coordinates": [ [ [ 30.982475711765229, -14.594915746853284 ], [ 30.982438160839024, -14.595159738593132 ], [ 30.982776119174897, -14.595159738593132 ], [ 30.982786848010949, -14.594884598952129 ], [ 30.982475711765229, -14.594915746853284 ] ] ] } },
{ "type": "Feature", "properties": { "id": "1", "layer": "polys_Zambia_irrig_purple_03", "path": "C:/Users/hssid/Downloads/drive-download-20250227T154022Z-001/polys_Zambia_irrig_purple_03.geojson" }, "geometry": { "type": "Polygon", "coordinates": [ [ [ 30.981966092052403, -14.596260293716671 ], [ 30.981923176708161, -14.596732700123527 ], [ 30.982218219699803, -14.596831334300266 ], [ 30.982497169437355, -14.595834607953805 ], [ 30.982110931339204, -14.595761929814417 ], [ 30.981966092052403, -14.596260293716671 ] ] ] } },
{ "type": "Feature", "properties": { "id": "2", "layer": "polys_Zambia_irrig_purple_03", "path": "C:/Users/hssid/Downloads/drive-download-20250227T154022Z-001/polys_Zambia_irrig_purple_03.geojson" }, "geometry": { "type": "Polygon", "coordinates": [ [ [ 30.982304050388276, -14.597412755917118 ], [ 30.982711746158543, -14.597568493589286 ], [ 30.982797576847016, -14.59668078738118 ], [ 30.982556178035683, -14.596665213556093 ], [ 30.982304050388276, -14.597412755917118 ] ] ] } },
{ "type": "Feature", "properties": { "id": "3", "layer": "polys_Zambia_irrig_purple_03", "path": "C:/Users/hssid/Downloads/drive-download-20250227T154022Z-001/polys_Zambia_irrig_purple_03.geojson" }, "geometry": { "type": "Polygon", "coordinates": [ [ [ 30.981529046889943, -14.598492005763534 ], [ 30.981783856746361, -14.598588043536591 ], [ 30.981850911971733, -14.598341459980851 ], [ 30.98159878432433, -14.598258400194581 ], [ 30.981529046889943, -14.598492005763534 ] ] ] } },
{ "type": "Feature", "properties": { "id": "0", "layer": "polys_Zambia_irrig_purple_04", "path": "C:/Users/hssid/Downloads/drive-download-20250227T154022Z-001/polys_Zambia_irrig_purple_04.geojson" }, "geometry": { "type": "Polygon", "coordinates": [ [ [ 31.08084727135881, -14.67560842488486 ], [ 31.080844589149791, -14.675745944143314 ], [ 31.080941148674327, -14.675758917653809 ], [ 31.080978699600532, -14.675618803699837 ], [ 31.08084727135881, -14.67560842488486 ] ] ] } },
{ "type": "Feature", "properties": { "id": "1", "layer": "polys_Zambia_irrig_purple_04", "path": "C:/Users/hssid/Downloads/drive-download-20250227T154022Z-001/polys_Zambia_irrig_purple_04.geojson" }, "geometry": { "type": "Polygon", "coordinates": [ [ [ 31.080705114281013, -14.675888652716361 ], [ 31.080884822285014, -14.675932762620093 ], [ 31.080922373211216, -14.675774485865373 ], [ 31.080758758461318, -14.675748538845474 ], [ 31.080705114281013, -14.675888652716361 ] ] ] } },
{ "type": "Feature", "properties": { "id": "2", "layer": "polys_Zambia_irrig_purple_04", "path": "C:/Users/hssid/Downloads/drive-download-20250227T154022Z-001/polys_Zambia_irrig_purple_04.geojson" }, "geometry": { "type": "Polygon", "coordinates": [ [ [ 31.080976017391521, -14.675730375929721 ], [ 31.080943830883342, -14.67592238382001 ], [ 31.081171818649612, -14.675912005019446 ], [ 31.081252284920058, -14.675751133547607 ], [ 31.080976017391521, -14.675730375929721 ] ] ] } },
{ "type": "Feature", "properties": { "id": "3", "layer": "polys_Zambia_irrig_purple_04", "path": "C:/Users/hssid/Downloads/drive-download-20250227T154022Z-001/polys_Zambia_irrig_purple_04.geojson" }, "geometry": { "type": "Polygon", "coordinates": [ [ [ 31.079975553428966, -14.675857516308367 ], [ 31.080176719105083, -14.675854921607495 ], [ 31.080182083523106, -14.675662913657982 ], [ 31.079916544830638, -14.675686265985172 ], [ 31.079975553428966, -14.675857516308367 ] ] ] } },
{ "type": "Feature", "properties": { "id": "0", "layer": "polys_Zambia_irrig_purple_05", "path": "C:/Users/hssid/Downloads/drive-download-20250227T154022Z-001/polys_Zambia_irrig_purple_05.geojson" }, "geometry": { "type": "Polygon", "coordinates": [ [ [ 31.126303698105897, -14.64714904966219 ], [ 31.126432444138615, -14.647289181832106 ], [ 31.12692328838834, -14.647008917402697 ], [ 31.126689936204041, -14.646827264340422 ], [ 31.126303698105897, -14.64714904966219 ] ] ] } },
{ "type": "Feature", "properties": { "id": "1", "layer": "polys_Zambia_irrig_purple_05", "path": "C:/Users/hssid/Downloads/drive-download-20250227T154022Z-001/polys_Zambia_irrig_purple_05.geojson" }, "geometry": { "type": "Polygon", "coordinates": [ [ [ 31.126740898175324, -14.64682207425072 ], [ 31.126915241761296, -14.646936256195856 ], [ 31.127239789052098, -14.646580734943702 ], [ 31.127062763257111, -14.64645617261678 ], [ 31.126740898175324, -14.64682207425072 ] ] ] } },
{ "type": "Feature", "properties": { "id": "2", "layer": "polys_Zambia_irrig_purple_05", "path": "C:/Users/hssid/Downloads/drive-download-20250227T154022Z-001/polys_Zambia_irrig_purple_05.geojson" }, "geometry": { "type": "Polygon", "coordinates": [ [ [ 31.127065445466123, -14.646380916176639 ], [ 31.127277339978299, -14.646552189416706 ], [ 31.127542878670777, -14.64627192404512 ], [ 31.127347077412686, -14.64604874951149 ], [ 31.127065445466123, -14.646380916176639 ] ] ] } },
{ "type": "Feature", "properties": { "id": "3", "layer": "polys_Zambia_irrig_purple_05", "path": "C:/Users/hssid/Downloads/drive-download-20250227T154022Z-001/polys_Zambia_irrig_purple_05.geojson" }, "geometry": { "type": "Polygon", "coordinates": [ [ [ 31.127371217293824, -14.646026691551061 ], [ 31.127558971924863, -14.646236890848476 ], [ 31.128149057908143, -14.645772376082327 ], [ 31.128248299641701, -14.645800921710855 ], [ 31.128645266575891, -14.645289694891604 ], [ 31.128465558571897, -14.645126205860263 ], [ 31.127371217293824, -14.646026691551061 ] ] ] } },
{ "type": "Feature", "properties": { "id": "4", "layer": "polys_Zambia_irrig_purple_05", "path": "C:/Users/hssid/Downloads/drive-download-20250227T154022Z-001/polys_Zambia_irrig_purple_05.geojson" }, "geometry": { "type": "Polygon", "coordinates": [ [ [ 31.128765965981561, -14.645105445339638 ], [ 31.128807540221295, -14.645183297281882 ], [ 31.128900076432316, -14.645128800925221 ], [ 31.1288424089385, -14.645071709489402 ], [ 31.128765965981561, -14.645105445339638 ] ] ] } },
{ "type": "Feature", "properties": { "id": "5", "layer": "polys_Zambia_irrig_purple_05", "path": "C:/Users/hssid/Downloads/drive-download-20250227T154022Z-001/polys_Zambia_irrig_purple_05.geojson" }, "geometry": { "type": "Polygon", "coordinates": [ [ [ 31.129193778319447, -14.644912112896817 ], [ 31.129311795516095, -14.644847236199935 ], [ 31.129394943995564, -14.644852426336401 ], [ 31.129523690028279, -14.644735648236429 ], [ 31.129271562380879, -14.644509877066779 ], [ 31.128984566016282, -14.644704507399259 ], [ 31.129193778319447, -14.644912112896817 ] ] ] } },
{ "type": "Feature", "properties": { "id": "0", "layer": "polys_Zambia_irrig_purple_06", "path": "C:/Users/hssid/Downloads/drive-download-20250227T154022Z-001/polys_Zambia_irrig_purple_06.geojson" }, "geometry": { "type": "Polygon", "coordinates": [ [ [ 31.198250687494507, -14.626897587854518 ], [ 31.198261416330567, -14.627185663809616 ], [ 31.198403573408363, -14.627434810276734 ], [ 31.198446488752595, -14.627699528088248 ], [ 31.198585963621376, -14.627696932817127 ], [ 31.198626196756607, -14.627611288853215 ], [ 31.198733485117192, -14.626869039766305 ], [ 31.198250687494507, -14.626897587854518 ] ] ] } },
{ "type": "Feature", "properties": { "id": "1", "layer": "polys_Zambia_irrig_purple_06", "path": "C:/Users/hssid/Downloads/drive-download-20250227T154022Z-001/polys_Zambia_irrig_purple_06.geojson" }, "geometry": { "type": "Polygon", "coordinates": [ [ [ 31.198854184522862, -14.627253141005703 ], [ 31.198846137895814, -14.627447786647496 ], [ 31.19904730357193, -14.627437405550948 ], [ 31.199154591932537, -14.627255736282077 ], [ 31.198854184522862, -14.627253141005703 ] ] ] } },
{ "type": "Feature", "properties": { "id": "2", "layer": "polys_Zambia_irrig_purple_06", "path": "C:/Users/hssid/Downloads/drive-download-20250227T154022Z-001/polys_Zambia_irrig_purple_06.geojson" }, "geometry": { "type": "Polygon", "coordinates": [ [ [ 31.19937989748977, -14.627393285885175 ], [ 31.199484503641361, -14.627395881159886 ], [ 31.199597156419994, -14.627162306313821 ], [ 31.19949255026841, -14.627110400758722 ], [ 31.19937989748977, -14.627393285885175 ] ] ] } },
{ "type": "Feature", "properties": { "id": "3", "layer": "polys_Zambia_irrig_purple_06", "path": "C:/Users/hssid/Downloads/drive-download-20250227T154022Z-001/polys_Zambia_irrig_purple_06.geojson" }, "geometry": { "type": "Polygon", "coordinates": [ [ [ 31.198950744047398, -14.627154520481335 ], [ 31.19918946064972, -14.627141544093249 ], [ 31.199302113428352, -14.626957279299681 ], [ 31.199031210317845, -14.626985827376412 ], [ 31.198950744047398, -14.627154520481335 ] ] ] } },
{ "type": "Feature", "properties": { "id": "4", "layer": "polys_Zambia_irrig_purple_06", "path": "C:/Users/hssid/Downloads/drive-download-20250227T154022Z-001/polys_Zambia_irrig_purple_06.geojson" }, "geometry": { "type": "Polygon", "coordinates": [ [ [ 31.199851966276395, -14.625978856607784 ], [ 31.199691033735505, -14.626355173543768 ], [ 31.199825144186256, -14.626407079277422 ], [ 31.200034356489411, -14.626061905918093 ], [ 31.20005581416153, -14.625677802594589 ], [ 31.199921703710789, -14.625657040233644 ], [ 31.199851966276395, -14.625978856607784 ] ] ] } },
{ "type": "Feature", "properties": { "id": "5", "layer": "polys_Zambia_irrig_purple_06", "path": "C:/Users/hssid/Downloads/drive-download-20250227T154022Z-001/polys_Zambia_irrig_purple_06.geojson" }, "geometry": { "type": "Polygon", "coordinates": [ [ [ 31.200443966949642, -14.623093836264083 ], [ 31.200671954715908, -14.623184672639113 ], [ 31.20073364552325, -14.623000404524854 ], [ 31.200545890892201, -14.622888805450895 ], [ 31.200443966949642, -14.623093836264083 ] ] ] } },
{ "type": "Feature", "properties": { "id": "0", "layer": "polys_Zambia_irrig_purple_07", "path": "C:/Users/hssid/Downloads/drive-download-20250227T154022Z-001/polys_Zambia_irrig_purple_07.geojson" }, "geometry": { "type": "Polygon", "coordinates": [ [ [ 31.273962306546242, -14.60113406393428 ], [ 31.273833560513534, -14.601404004595953 ], [ 31.274734782742527, -14.601902355716309 ], [ 31.275378512906109, -14.601850444193959 ], [ 31.275539445446995, -14.601383239941429 ], [ 31.274691867398296, -14.601123681594514 ], [ 31.273962306546242, -14.60113406393428 ] ] ] } },
{ "type": "Feature", "properties": { "id": "1", "layer": "polys_Zambia_irrig_purple_07", "path": "C:/Users/hssid/Downloads/drive-download-20250227T154022Z-001/polys_Zambia_irrig_purple_07.geojson" }, "geometry": { "type": "Polygon", "coordinates": [ [ [ 31.273740902784848, -14.601527527001934 ], [ 31.274368539694326, -14.602472316178078 ], [ 31.274668947103994, -14.601906481389737 ], [ 31.27383746230938, -14.601423703768038 ], [ 31.273740902784848, -14.601527527001934 ] ] ] } },
{ "type": "Feature", "properties": { "id": "2", "layer": "polys_Zambia_irrig_purple_07", "path": "C:/Users/hssid/Downloads/drive-download-20250227T154022Z-001/polys_Zambia_irrig_purple_07.geojson" }, "geometry": { "type": "Polygon", "coordinates": [ [ [ 31.275849119070546, -14.602129700792036 ], [ 31.275645271185422, -14.602446360485706 ], [ 31.275441423300279, -14.603141971982343 ], [ 31.276884451750295, -14.603759714675778 ], [ 31.277093664053464, -14.603204265441857 ], [ 31.276659146193055, -14.602996620508176 ], [ 31.27674497688152, -14.602363302249511 ], [ 31.276069060209768, -14.601958392898858 ], [ 31.275849119070546, -14.602129700792036 ] ] ] } },
{ "type": "Feature", "properties": { "id": "3", "layer": "polys_Zambia_irrig_purple_07", "path": "C:/Users/hssid/Downloads/drive-download-20250227T154022Z-001/polys_Zambia_irrig_purple_07.geojson" }, "geometry": { "type": "Polygon", "coordinates": [ [ [ 31.278102174643063, -14.603899874541172 ], [ 31.278563514593621, -14.604097136422581 ], [ 31.278788820150861, -14.60353649692795 ], [ 31.278322115782281, -14.603339234543624 ], [ 31.278102174643063, -14.603899874541172 ] ] ] } },
{ "type": "Feature", "properties": { "id": "4", "layer": "polys_Zambia_irrig_purple_07", "path": "C:/Users/hssid/Downloads/drive-download-20250227T154022Z-001/polys_Zambia_irrig_purple_07.geojson" }, "geometry": { "type": "Polygon", "coordinates": [ [ [ 31.27759791934826, -14.601698835230712 ], [ 31.277796402815355, -14.601434086093624 ], [ 31.27775348747112, -14.601221248320968 ], [ 31.277549639585988, -14.601158954299763 ], [ 31.277286783102529, -14.601184910144092 ], [ 31.277131214979661, -14.601434086093624 ], [ 31.27759791934826, -14.601698835230712 ] ] ] } },
{ "type": "Feature", "properties": { "id": "5", "layer": "polys_Zambia_irrig_purple_07", "path": "C:/Users/hssid/Downloads/drive-download-20250227T154022Z-001/polys_Zambia_irrig_purple_07.geojson" }, "geometry": { "type": "Polygon", "coordinates": [ [ [ 31.277892962339894, -14.601299115822664 ], [ 31.278413310888787, -14.601428894930894 ], [ 31.278536692503476, -14.600992836823643 ], [ 31.277844682577626, -14.600863057458117 ], [ 31.277892962339894, -14.601299115822664 ] ] ] } },
{ "type": "Feature", "properties": { "id": "6", "layer": "polys_Zambia_irrig_purple_07", "path": "C:/Users/hssid/Downloads/drive-download-20250227T154022Z-001/polys_Zambia_irrig_purple_07.geojson" }, "geometry": { "type": "Polygon", "coordinates": [ [ [ 31.278343573454404, -14.600779998623977 ], [ 31.27859033668377, -14.600785189802037 ], [ 31.278595701101796, -14.60126796882531 ], [ 31.278960481527822, -14.601309498154144 ], [ 31.278960481527822, -14.600364703982889 ], [ 31.27833820903636, -14.600349130418598 ], [ 31.278343573454404, -14.600779998623977 ] ] ] } },
{ "type": "Feature", "properties": { "id": "7", "layer": "polys_Zambia_irrig_purple_07", "path": "C:/Users/hssid/Downloads/drive-download-20250227T154022Z-001/polys_Zambia_irrig_purple_07.geojson" }, "geometry": { "type": "Polygon", "coordinates": [ [ [ 31.278027072790632, -14.600105144434016 ], [ 31.277817860487474, -14.60022454186454 ], [ 31.277774945143236, -14.600421807042538 ], [ 31.277608648184316, -14.600712513298166 ], [ 31.278289929274102, -14.60077480744582 ], [ 31.27826310718395, -14.600120718015591 ], [ 31.278027072790632, -14.600105144434016 ] ] ] } },
{ "type": "Feature", "properties": { "id": "0", "layer": "polys_Zambia_irrig_purple_08", "path": "C:/Users/hssid/Downloads/drive-download-20250227T154022Z-001/polys_Zambia_irrig_purple_08.geojson" }, "geometry": { "type": "Polygon", "coordinates": [ [ [ 31.312262080240405, -14.607338023648619 ], [ 31.312457881498496, -14.607792237718032 ], [ 31.312924585867094, -14.607553451009974 ], [ 31.312935314703147, -14.607270540335382 ], [ 31.312841437387622, -14.607049921666773 ], [ 31.312262080240405, -14.607338023648619 ] ] ] } },
{ "type": "Feature", "properties": { "id": "1", "layer": "polys_Zambia_irrig_purple_08", "path": "C:/Users/hssid/Downloads/drive-download-20250227T154022Z-001/polys_Zambia_irrig_purple_08.geojson" }, "geometry": { "type": "Polygon", "coordinates": [ [ [ 31.313080153989954, -14.607610552202889 ], [ 31.312997005510489, -14.607610552202891 ], [ 31.312988958883441, -14.607706585993872 ], [ 31.313053331899791, -14.607864911882046 ], [ 31.313351057100451, -14.60774811410672 ], [ 31.313238404321829, -14.607467799192788 ], [ 31.313074789571914, -14.60750932735073 ], [ 31.313080153989954, -14.607610552202889 ] ] ] } },
{ "type": "Feature", "properties": { "id": "2", "layer": "polys_Zambia_irrig_purple_08", "path": "C:/Users/hssid/Downloads/drive-download-20250227T154022Z-001/polys_Zambia_irrig_purple_08.geojson" }, "geometry": { "type": "Polygon", "coordinates": [ [ [ 31.313452981043017, -14.608430731337339 ], [ 31.313506625223312, -14.608729213490758 ], [ 31.313828490305102, -14.608718831509613 ], [ 31.313750706243674, -14.60839439435188 ], [ 31.313452981043017, -14.608430731337339 ] ] ] } },
{ "type": "Feature", "properties": { "id": "3", "layer": "polys_Zambia_irrig_purple_08", "path": "C:/Users/hssid/Downloads/drive-download-20250227T154022Z-001/polys_Zambia_irrig_purple_08.geojson" }, "geometry": { "type": "Polygon", "coordinates": [ [ [ 31.313407383489768, -14.608025833159731 ], [ 31.31346907429711, -14.608319124862843 ], [ 31.313520036268393, -14.608303551861887 ], [ 31.313525400686419, -14.608095911743842 ], [ 31.313452981043017, -14.608002473626726 ], [ 31.313407383489768, -14.608025833159731 ] ] ] } },
{ "type": "Feature", "properties": { "id": "4", "layer": "polys_Zambia_irrig_purple_08", "path": "C:/Users/hssid/Downloads/drive-download-20250227T154022Z-001/polys_Zambia_irrig_purple_08.geojson" }, "geometry": { "type": "Polygon", "coordinates": [ [ [ 31.31220111951038, -14.610930477827781 ], [ 31.312198437301365, -14.611004448688439 ], [ 31.31226951584026, -14.611110862865345 ], [ 31.312347299901692, -14.611105671931094 ], [ 31.312358028737751, -14.611021319232119 ], [ 31.312336571065629, -14.610943455173553 ], [ 31.31220111951038, -14.610930477827781 ] ] ] } },
{ "type": "Feature", "properties": { "id": "5", "layer": "polys_Zambia_irrig_purple_08", "path": "C:/Users/hssid/Downloads/drive-download-20250227T154022Z-001/polys_Zambia_irrig_purple_08.geojson" }, "geometry": { "type": "Polygon", "coordinates": [ [ [ 31.312482751456944, -14.610683908112479 ], [ 31.312451906053266, -14.61083574318042 ], [ 31.312607474176147, -14.610870782027339 ], [ 31.312616861907685, -14.610756581320466 ], [ 31.312482751456944, -14.610683908112479 ] ] ] } },
{ "type": "Feature", "properties": { "id": "6", "layer": "polys_Zambia_irrig_purple_08", "path": "C:/Users/hssid/Downloads/drive-download-20250227T154022Z-001/polys_Zambia_irrig_purple_08.geojson" }, "geometry": { "type": "Polygon", "coordinates": [ [ [ 31.312480775434324, -14.611282178734768 ], [ 31.312451271135153, -14.611363935869548 ], [ 31.312449930030638, -14.611439204315916 ], [ 31.3126765766924, -14.611458670289236 ], [ 31.312692669946486, -14.61139508143668 ], [ 31.312630979139158, -14.611318515242868 ], [ 31.312480775434324, -14.611282178734768 ] ] ] } },
{ "type": "Feature", "properties": { "id": "7", "layer": "polys_Zambia_irrig_purple_08", "path": "C:/Users/hssid/Downloads/drive-download-20250227T154022Z-001/polys_Zambia_irrig_purple_08.geojson" }, "geometry": { "type": "Polygon", "coordinates": [ [ [ 31.311432132407827, -14.613567538183428 ], [ 31.31141469804923, -14.613660973934749 ], [ 31.311469683334039, -14.613681737429639 ], [ 31.311512598678274, -14.613557156430824 ], [ 31.311481753274602, -14.613550667835213 ], [ 31.311432132407827, -14.613567538183428 ] ] ] } },
{ "type": "Feature", "properties": { "id": "8", "layer": "polys_Zambia_irrig_purple_08", "path": "C:/Users/hssid/Downloads/drive-download-20250227T154022Z-001/polys_Zambia_irrig_purple_08.geojson" }, "geometry": { "type": "Polygon", "coordinates": [ [ [ 31.311189392491968, -14.613331353190482 ], [ 31.311188051387468, -14.613467613794324 ], [ 31.311312774106664, -14.613467613794324 ], [ 31.311327526256242, -14.613402727803031 ], [ 31.311281928702993, -14.613319673706226 ], [ 31.3112671765534, -14.61325348995036 ], [ 31.311184028073946, -14.613247001345766 ], [ 31.311189392491968, -14.613331353190482 ] ] ] } },
{ "type": "Feature", "properties": { "id": "0", "layer": "polys_Zambia_irrig_purple_09", "path": "C:/Users/hssid/Downloads/drive-download-20250227T154022Z-001/polys_Zambia_irrig_purple_09.geojson" }, "geometry": { "type": "Polygon", "coordinates": [ [ [ 31.453230251766076, -14.505548044906259 ], [ 31.453498472667555, -14.50565450996144 ], [ 31.453637947536329, -14.505265003413074 ], [ 31.453353633380758, -14.505184505307668 ], [ 31.453230251766076, -14.505548044906259 ] ] ] } },
{ "type": "Feature", "properties": { "id": "1", "layer": "polys_Zambia_irrig_purple_09", "path": "C:/Users/hssid/Downloads/drive-download-20250227T154022Z-001/polys_Zambia_irrig_purple_09.geojson" }, "geometry": { "type": "Polygon", "coordinates": [ [ [ 31.452940573192464, -14.50595313118456 ], [ 31.453329493499634, -14.506111530104695 ], [ 31.453444828487264, -14.505706444116123 ], [ 31.453106870151384, -14.50559218895974 ], [ 31.452940573192464, -14.50595313118456 ] ] ] } },
{ "type": "Feature", "properties": { "id": "2", "layer": "polys_Zambia_irrig_purple_09", "path": "C:/Users/hssid/Downloads/drive-download-20250227T154022Z-001/polys_Zambia_irrig_purple_09.geojson" }, "geometry": { "type": "Polygon", "coordinates": [ [ [ 31.455909778571957, -14.50441328004052 ], [ 31.455868256141816, -14.504689780665677 ], [ 31.456273269703065, -14.504832600183901 ], [ 31.456372511436623, -14.504588508587853 ], [ 31.455909778571957, -14.50441328004052 ] ] ] } },
{ "type": "Feature", "properties": { "id": "3", "layer": "polys_Zambia_irrig_purple_09", "path": "C:/Users/hssid/Downloads/drive-download-20250227T154022Z-001/polys_Zambia_irrig_purple_09.geojson" }, "geometry": { "type": "Polygon", "coordinates": [ [ [ 31.455272805740517, -14.502851295735026 ], [ 31.455052864601289, -14.503178484847421 ], [ 31.455457878162537, -14.503391417184744 ], [ 31.455616128494416, -14.503134340312835 ], [ 31.455664408256688, -14.502778586977747 ], [ 31.455272805740517, -14.502851295735026 ] ] ] } },
{ "type": "Feature", "properties": { "id": "4", "layer": "polys_Zambia_irrig_purple_09", "path": "C:/Users/hssid/Downloads/drive-download-20250227T154022Z-001/polys_Zambia_irrig_purple_09.geojson" }, "geometry": { "type": "Polygon", "coordinates": [ [ [ 31.454698813011326, -14.503812087786093 ], [ 31.455355954219964, -14.50407955077762 ], [ 31.455487382461694, -14.503643300295106 ], [ 31.455439102699433, -14.50345373880573 ], [ 31.454985809375916, -14.503233016319149 ], [ 31.454698813011326, -14.503812087786093 ] ] ] } },
{ "type": "Feature", "properties": { "id": "5", "layer": "polys_Zambia_irrig_purple_09", "path": "C:/Users/hssid/Downloads/drive-download-20250227T154022Z-001/polys_Zambia_irrig_purple_09.geojson" }, "geometry": { "type": "Polygon", "coordinates": [ [ [ 31.453260107878137, -14.504043487737595 ], [ 31.453170253876131, -14.504344707856429 ], [ 31.45336873734324, -14.504422609544608 ], [ 31.453470661285813, -14.504283684848195 ], [ 31.453634276035707, -14.504378465258005 ], [ 31.453791185263078, -14.504177219134023 ], [ 31.453525646570608, -14.504011028648627 ], [ 31.453340574148577, -14.50396948100779 ], [ 31.453260107878137, -14.504043487737595 ] ] ] } },
{ "type": "Feature", "properties": { "id": "0", "layer": "polys_Zambia_irrig_red_01", "path": "C:/Users/hssid/Downloads/drive-download-20250227T154022Z-001/polys_Zambia_irrig_red_01.geojson" }, "geometry": { "type": "Polygon", "coordinates": [ [ [ 32.530747148462098, -13.742010543765398 ], [ 32.531010004945557, -13.742578527106547 ], [ 32.531305047937195, -13.742979762214835 ], [ 32.531766387887757, -13.742229399894773 ], [ 32.531412336297791, -13.741854217833529 ], [ 32.53119239515857, -13.741984489450655 ], [ 32.53092417425708, -13.741635361353683 ], [ 32.530661317773621, -13.741604096125576 ], [ 32.53050574965075, -13.741755211356068 ], [ 32.530747148462098, -13.742010543765398 ] ] ] } },
{ "type": "Feature", "properties": { "id": "1", "layer": "polys_Zambia_irrig_red_01", "path": "C:/Users/hssid/Downloads/drive-download-20250227T154022Z-001/polys_Zambia_irrig_red_01.geojson" }, "geometry": { "type": "Polygon", "coordinates": [ [ [ 32.531595961325095, -13.743109236736382 ], [ 32.531652287714408, -13.743190004714885 ], [ 32.53173543619387, -13.743111842155482 ], [ 32.531644241087363, -13.743067550026909 ], [ 32.531595961325095, -13.743109236736382 ] ] ] } },
{ "type": "Feature", "properties": { "id": "2", "layer": "polys_Zambia_irrig_red_01", "path": "C:/Users/hssid/Downloads/drive-download-20250227T154022Z-001/polys_Zambia_irrig_red_01.geojson" }, "geometry": { "type": "Polygon", "coordinates": [ [ [ 32.531035379640983, -13.744479683179684 ], [ 32.531225816481033, -13.744547423670456 ], [ 32.531233863108085, -13.744398915645849 ], [ 32.531284825079375, -13.744370256191658 ], [ 32.53134651588671, -13.744419758883049 ], [ 32.531496719591537, -13.744172245321506 ], [ 32.531443075411246, -13.744130558801197 ], [ 32.531459168665336, -13.744086266865237 ], [ 32.531330422632621, -13.743984655921695 ], [ 32.531394795648978, -13.743713693190113 ], [ 32.531064883940154, -13.74348962761762 ], [ 32.530898586981223, -13.74396902346494 ], [ 32.531322376005576, -13.744198299392934 ], [ 32.5312365453171, -13.744328569706589 ], [ 32.531035379640983, -13.744479683179684 ] ] ] } },
{ "type": "Feature", "properties": { "id": "0", "layer": "polys_Zambia_irrig_red_02", "path": "C:/Users/hssid/Downloads/drive-download-20250227T154022Z-001/polys_Zambia_irrig_red_02.geojson" }, "geometry": { "type": "Polygon", "coordinates": [ [ [ 32.523668960117455, -13.949166772295923 ], [ 32.524929598354454, -13.949218834502355 ], [ 32.524859860920067, -13.948958523352703 ], [ 32.52378161289608, -13.948901254860356 ], [ 32.523668960117455, -13.949166772295923 ] ] ] } },
{ "type": "Feature", "properties": { "id": "1", "layer": "polys_Zambia_irrig_red_02", "path": "C:/Users/hssid/Downloads/drive-download-20250227T154022Z-001/polys_Zambia_irrig_red_02.geojson" }, "geometry": { "type": "Polygon", "coordinates": [ [ [ 32.520455673717613, -13.949911260730477 ], [ 32.521710947536583, -13.949874817296598 ], [ 32.522419050716522, -13.949624919309239 ], [ 32.522333220028038, -13.949395845916325 ], [ 32.521753862880821, -13.949520795067944 ], [ 32.521523192905541, -13.949729043503542 ], [ 32.521372989200714, -13.949687393831466 ], [ 32.521346167110551, -13.949515588854638 ], [ 32.520498589061845, -13.949635331730786 ], [ 32.520455673717613, -13.949911260730477 ] ] ] } },
{ "type": "Feature", "properties": { "id": "0", "layer": "polys_Zambia_irrig_red_03", "path": "C:/Users/hssid/Downloads/drive-download-20250227T154022Z-001/polys_Zambia_irrig_red_03.geojson" }, "geometry": { "type": "Polygon", "coordinates": [ [ [ 32.365484641253246, -13.80734029053718 ], [ 32.365511463343395, -13.807530433788356 ], [ 32.365481959044232, -13.8075512713955 ], [ 32.365420268236889, -13.807410617511174 ], [ 32.365084992110035, -13.807527829087336 ], [ 32.364736304938091, -13.807655459403259 ], [ 32.364918695151104, -13.807842997699877 ], [ 32.365455136954083, -13.807642435904837 ], [ 32.365991578757068, -13.807874254067981 ], [ 32.366037176310321, -13.807775275554619 ], [ 32.365830646216168, -13.807603365405194 ], [ 32.365905748068585, -13.807322057614542 ], [ 32.365680442511334, -13.807137123604278 ], [ 32.365573154150731, -13.807155356541394 ], [ 32.365484641253246, -13.80734029053718 ] ] ] } },
{ "type": "Feature", "properties": { "id": "1", "layer": "polys_Zambia_irrig_red_03", "path": "C:/Users/hssid/Downloads/drive-download-20250227T154022Z-001/polys_Zambia_irrig_red_03.geojson" }, "geometry": { "type": "Polygon", "coordinates": [ [ [ 32.366255680006454, -13.805418919971912 ], [ 32.366244951170394, -13.805598645899913 ], [ 32.366330781858871, -13.805627297846648 ], [ 32.366767981928298, -13.805627297846648 ], [ 32.366826990526626, -13.805549156165453 ], [ 32.366789439600417, -13.805392872724489 ], [ 32.366255680006454, -13.805418919971912 ] ] ] } },
{ "type": "Feature", "properties": { "id": "2", "layer": "polys_Zambia_irrig_red_03", "path": "C:/Users/hssid/Downloads/drive-download-20250227T154022Z-001/polys_Zambia_irrig_red_03.geojson" }, "geometry": { "type": "Polygon", "coordinates": [ [ [ 32.361910595300493, -13.804126320785842 ], [ 32.36299957216054, -13.80479834248897 ], [ 32.363605751397905, -13.804423260846976 ], [ 32.3635521072176, -13.804308652447137 ], [ 32.363047851922801, -13.804141949219542 ], [ 32.362216367128191, -13.803527230037865 ], [ 32.361824764612024, -13.802620776762797 ], [ 32.361014737489519, -13.803016699316306 ], [ 32.361910595300493, -13.804126320785842 ] ] ] } },
{ "type": "Feature", "properties": { "id": "3", "layer": "polys_Zambia_irrig_red_03", "path": "C:/Users/hssid/Downloads/drive-download-20250227T154022Z-001/polys_Zambia_irrig_red_03.geojson" }, "geometry": { "type": "Polygon", "coordinates": [ [ [ 32.360708486697632, -13.799235340037995 ], [ 32.360703122279602, -13.799349950930816 ], [ 32.360335659644562, -13.799459352185075 ], [ 32.360354435107666, -13.799649501862058 ], [ 32.360129129550415, -13.799738064672407 ], [ 32.36019350256678, -13.799870908824891 ], [ 32.360818457267243, -13.79972243594362 ], [ 32.361100089213807, -13.799495819258427 ], [ 32.360968660972077, -13.799222316069336 ], [ 32.360708486697632, -13.799235340037995 ] ] ] } },
{ "type": "Feature", "properties": { "id": "4", "layer": "polys_Zambia_irrig_red_03", "path": "C:/Users/hssid/Downloads/drive-download-20250227T154022Z-001/polys_Zambia_irrig_red_03.geojson" }, "geometry": { "type": "Polygon", "coordinates": [ [ [ 32.356851991271711, -13.802718395620193 ], [ 32.358278926467634, -13.802937194917588 ], [ 32.358563240623212, -13.802088044115887 ], [ 32.358064349746442, -13.801947386936151 ], [ 32.356916364288075, -13.801561881638341 ], [ 32.356562312698095, -13.801900501190726 ], [ 32.356648143386579, -13.802296424966977 ], [ 32.35694855079624, -13.802317263041857 ], [ 32.356851991271711, -13.802718395620193 ] ] ] } },
{ "type": "Feature", "properties": { "id": "0", "layer": "polys_Zambia_irrig_red_04", "path": "C:/Users/hssid/Downloads/drive-download-20250227T154022Z-001/polys_Zambia_irrig_red_04.geojson" }, "geometry": { "type": "Polygon", "coordinates": [ [ [ 32.292913209898131, -13.653471957020253 ], [ 32.292883705598975, -13.653743023797183 ], [ 32.293106328947211, -13.653875950660487 ], [ 32.293240439397955, -13.653737810977484 ], [ 32.293481838209303, -13.653865525026839 ], [ 32.293463062746191, -13.653951536490519 ], [ 32.293583762151854, -13.653985419785776 ], [ 32.293629359705115, -13.653860312209861 ], [ 32.293334316713477, -13.65355014939172 ], [ 32.292913209898131, -13.653471957020253 ] ] ] } },
{ "type": "Feature", "properties": { "id": "1", "layer": "polys_Zambia_irrig_red_04", "path": "C:/Users/hssid/Downloads/drive-download-20250227T154022Z-001/polys_Zambia_irrig_red_04.geojson" }, "geometry": { "type": "Polygon", "coordinates": [ [ [ 32.29124930359864, -13.653132072296128 ], [ 32.291107146520851, -13.653304095727014 ], [ 32.291184930582283, -13.653452661316363 ], [ 32.291442422647712, -13.653403139463645 ], [ 32.291965453405616, -13.653403139463643 ], [ 32.292005686540833, -13.653311914970896 ], [ 32.291702596922157, -13.653142497962181 ], [ 32.291335134287117, -13.653066911872878 ], [ 32.29124930359864, -13.653132072296128 ] ] ] } },
{ "type": "Feature", "properties": { "id": "2", "layer": "polys_Zambia_irrig_red_04", "path": "C:/Users/hssid/Downloads/drive-download-20250227T154022Z-001/polys_Zambia_irrig_red_04.geojson" }, "geometry": { "type": "Polygon", "coordinates": [ [ [ 32.290048811204421, -13.651423877384131 ], [ 32.290330443150992, -13.65158547632633 ], [ 32.29033312536, -13.651697552947036 ], [ 32.290539655454147, -13.651817448807906 ], [ 32.290652308232765, -13.651564624856141 ], [ 32.290467235810752, -13.651421270948665 ], [ 32.290115866429794, -13.651280523391126 ], [ 32.290048811204421, -13.651423877384131 ] ] ] } },
{ "type": "Feature", "properties": { "id": "3", "layer": "polys_Zambia_irrig_red_04", "path": "C:/Users/hssid/Downloads/drive-download-20250227T154022Z-001/polys_Zambia_irrig_red_04.geojson" }, "geometry": { "type": "Polygon", "coordinates": [ [ [ 32.290856156117897, -13.651921706028705 ], [ 32.290856156117897, -13.652036388918368 ], [ 32.291070732839088, -13.652041601775661 ], [ 32.291102919347274, -13.651890428867313 ], [ 32.291030499703872, -13.651778352338233 ], [ 32.290944669015396, -13.651655850024621 ], [ 32.290770325429428, -13.651804416652078 ], [ 32.290856156117897, -13.651921706028705 ] ] ] } },
{ "type": "Feature", "properties": { "id": "4", "layer": "polys_Zambia_irrig_red_04", "path": "C:/Users/hssid/Downloads/drive-download-20250227T154022Z-001/polys_Zambia_irrig_red_04.geojson" }, "geometry": { "type": "Polygon", "coordinates": [ [ [ 32.28882424834331, -13.651192241452694 ], [ 32.289062964945629, -13.651220912268991 ], [ 32.289103198080859, -13.650871649360413 ], [ 32.289052236109576, -13.650720475702332 ], [ 32.288885939150653, -13.650704837042516 ], [ 32.28882424834331, -13.651192241452694 ] ] ] } },
{ "type": "Feature", "properties": { "id": "0", "layer": "polys_Zambia_irrig_red_05", "path": "C:/Users/hssid/Downloads/drive-download-20250227T154022Z-001/polys_Zambia_irrig_red_05.geojson" }, "geometry": { "type": "Polygon", "coordinates": [ [ [ 32.106330465700907, -13.740819155474792 ], [ 32.106606733229441, -13.740829577252867 ], [ 32.1068695897129, -13.74064719606962 ], [ 32.106743525889208, -13.740511712813023 ], [ 32.106306325819773, -13.740595087134041 ], [ 32.106330465700907, -13.740819155474792 ] ] ] } },
{ "type": "Feature", "properties": { "id": "1", "layer": "polys_Zambia_irrig_red_05", "path": "C:/Users/hssid/Downloads/drive-download-20250227T154022Z-001/polys_Zambia_irrig_red_05.geojson" }, "geometry": { "type": "Polygon", "coordinates": [ [ [ 32.105118107226168, -13.741173495669326 ], [ 32.10508592071799, -13.741460093964088 ], [ 32.10526294651298, -13.741527835327988 ], [ 32.105536531832499, -13.741335032933113 ], [ 32.105536531832499, -13.741116175968308 ], [ 32.105359506037516, -13.740980692982872 ], [ 32.105118107226168, -13.741173495669326 ] ] ] } },
{ "type": "Feature", "properties": { "id": "2", "layer": "polys_Zambia_irrig_red_05", "path": "C:/Users/hssid/Downloads/drive-download-20250227T154022Z-001/polys_Zambia_irrig_red_05.geojson" }, "geometry": { "type": "Polygon", "coordinates": [ [ [ 32.105531167414469, -13.741746691908279 ], [ 32.105300497439181, -13.741981180874577 ], [ 32.105541896250529, -13.742017656914904 ], [ 32.105815481570048, -13.741574733183832 ], [ 32.105659913447184, -13.741465304838929 ], [ 32.105531167414469, -13.741746691908279 ] ] ] } },
{ "type": "Feature", "properties": { "id": "0", "layer": "polys_Zambia_irrig_red_06", "path": "C:/Users/hssid/Downloads/drive-download-20250227T154022Z-001/polys_Zambia_irrig_red_06.geojson" }, "geometry": { "type": "Polygon", "coordinates": [ [ [ 31.97060690237408, -13.929994263594692 ], [ 31.970816114677245, -13.930311869249495 ], [ 31.970939496291926, -13.930311869249495 ], [ 31.970982411636172, -13.929681864163983 ], [ 31.970601537956046, -13.929687070824626 ], [ 31.97060690237408, -13.929994263594692 ] ] ] } },
{ "type": "Feature", "properties": { "id": "1", "layer": "polys_Zambia_irrig_red_06", "path": "C:/Users/hssid/Downloads/drive-download-20250227T154022Z-001/polys_Zambia_irrig_red_06.geojson" }, "geometry": { "type": "Polygon", "coordinates": [ [ [ 31.96990148140317, -13.930577408068324 ], [ 31.969657400382811, -13.930895012921322 ], [ 31.969764688743414, -13.930949682565087 ], [ 31.970054367317019, -13.930915839453798 ], [ 31.970169702304648, -13.930796086866398 ], [ 31.96990148140317, -13.930577408068324 ] ] ] } },
{ "type": "Feature", "properties": { "id": "2", "layer": "polys_Zambia_irrig_red_06", "path": "C:/Users/hssid/Downloads/drive-download-20250227T154022Z-001/polys_Zambia_irrig_red_06.geojson" }, "geometry": { "type": "Polygon", "coordinates": [ [ [ 31.972079435123256, -13.930993938933883 ], [ 31.972057977451144, -13.931207410711375 ], [ 31.972267189754302, -13.931202204084991 ], [ 31.972559550536925, -13.931079848331478 ], [ 31.972460308803363, -13.930965302460926 ], [ 31.972079435123256, -13.930993938933883 ] ] ] } },
{ "type": "Feature", "properties": { "id": "3", "layer": "polys_Zambia_irrig_red_06", "path": "C:/Users/hssid/Downloads/drive-download-20250227T154022Z-001/polys_Zambia_irrig_red_06.geojson" }, "geometry": { "type": "Polygon", "coordinates": [ [ [ 31.972817042602355, -13.931858238083606 ], [ 31.973087945712862, -13.931774932282298 ], [ 31.973045030368624, -13.93162914705773 ], [ 31.97280899597531, -13.931733279370388 ], [ 31.972817042602355, -13.931858238083606 ] ] ] } },
{ "type": "Feature", "properties": { "id": "0", "layer": "polys_Zambia_irrig_red_07", "path": "C:/Users/hssid/Downloads/drive-download-20250227T154022Z-001/polys_Zambia_irrig_red_07.geojson" }, "geometry": { "type": "Polygon", "coordinates": [ [ [ 32.986948930512519, -14.000119402756825 ], [ 32.987099134217345, -14.000382258600268 ], [ 32.987394177208984, -14.000572243329612 ], [ 32.987501465569586, -14.000475949719304 ], [ 32.987002574692816, -14.000030916563661 ], [ 32.986948930512519, -14.000119402756825 ] ] ] } },
{ "type": "Feature", "properties": { "id": "1", "layer": "polys_Zambia_irrig_red_07", "path": "C:/Users/hssid/Downloads/drive-download-20250227T154022Z-001/polys_Zambia_irrig_red_07.geojson" }, "geometry": { "type": "Polygon", "coordinates": [ [ [ 32.983432084099071, -14.000322525924137 ], [ 32.983507185951481, -14.000489087930424 ], [ 32.984172373787182, -14.000796186313014 ], [ 32.984231382385516, -14.00068688015609 ], [ 32.98421528913142, -14.00058277900591 ], [ 32.983474999443317, -14.000244449942135 ], [ 32.983432084099071, -14.000322525924137 ] ] ] } },
{ "type": "Feature", "properties": { "id": "2", "layer": "polys_Zambia_irrig_red_07", "path": "C:/Users/hssid/Downloads/drive-download-20250227T154022Z-001/polys_Zambia_irrig_red_07.geojson" }, "geometry": { "type": "Polygon", "coordinates": [ [ [ 32.982636551797711, -14.000613967623295 ], [ 32.982525240123593, -14.000624377739026 ], [ 32.982549380004727, -14.000707658647849 ], [ 32.982601683080524, -14.000761010464227 ], [ 32.982648621738278, -14.000745395299758 ], [ 32.982660691678852, -14.000705056119918 ], [ 32.982636551797711, -14.000613967623295 ] ] ] } },
{ "type": "Feature", "properties": { "id": "3", "layer": "polys_Zambia_irrig_red_07", "path": "C:/Users/hssid/Downloads/drive-download-20250227T154022Z-001/polys_Zambia_irrig_red_07.geojson" }, "geometry": { "type": "Polygon", "coordinates": [ [ [ 32.983211247053653, -14.002974875648571 ], [ 32.983227340307756, -14.003118013227718 ], [ 32.983718184557475, -14.003138833231791 ], [ 32.984061507311381, -14.003339225674619 ], [ 32.984211711016215, -14.003115410727071 ], [ 32.983460692492045, -14.002712022770998 ], [ 32.983211247053653, -14.002974875648571 ] ] ] } },
{ "type": "Feature", "properties": { "id": "4", "layer": "polys_Zambia_irrig_red_07", "path": "C:/Users/hssid/Downloads/drive-download-20250227T154022Z-001/polys_Zambia_irrig_red_07.geojson" }, "geometry": { "type": "Polygon", "coordinates": [ [ [ 32.983137245937861, -14.002324037792354 ], [ 32.983224417730845, -14.002399510558984 ], [ 32.983217712208308, -14.002523129692165 ], [ 32.983338411613978, -14.002511418408725 ], [ 32.983319636150881, -14.002326640301959 ], [ 32.983276720806636, -14.002223841150069 ], [ 32.983185525700129, -14.002255071277025 ], [ 32.983137245937861, -14.002324037792354 ] ] ] } },
{ "type": "Feature", "properties": { "id": "5", "layer": "polys_Zambia_irrig_red_07", "path": "C:/Users/hssid/Downloads/drive-download-20250227T154022Z-001/polys_Zambia_irrig_red_07.geojson" }, "geometry": { "type": "Polygon", "coordinates": [ [ [ 32.983494370235761, -14.001539356150777 ], [ 32.983507781280835, -14.001768377665488 ], [ 32.983674078239758, -14.001726737407058 ], [ 32.983644573940587, -14.001471690659558 ], [ 32.983494370235761, -14.001539356150777 ] ] ] } },
{ "type": "Feature", "properties": { "id": "0", "layer": "polys_Zambia_irrig_red_08", "path": "C:/Users/hssid/Downloads/drive-download-20250227T154022Z-001/polys_Zambia_irrig_red_08.geojson" }, "geometry": { "type": "Polygon", "coordinates": [ [ [ 32.813211727514052, -13.356444702449846 ], [ 32.813447761907369, -13.356353364332454 ], [ 32.81305884160021, -13.355607000134848 ], [ 32.812844264879018, -13.355241646189599 ], [ 32.812618959321767, -13.35478756265818 ], [ 32.812318551912107, -13.354630981932022 ], [ 32.812173338188693, -13.354199215223593 ], [ 32.811974854721591, -13.354261847638305 ], [ 32.812184067024752, -13.354862074121627 ], [ 32.812843890442416, -13.355733704704784 ], [ 32.813211727514052, -13.356444702449846 ] ] ] } }
]
}
