{
"type": "FeatureCollection",
"name": "Zambia_nonirrigated",
"crs": { "type": "name", "properties": { "name": "urn:ogc:def:crs:OGC:1.3:CRS84" } },
"features": [
{ "type": "Feature", "properties": { "id": "0", "layer": "polys_Zambia_nonirrig_blue_03", "path": "C:/Users/hssid/Downloads/drive-download-20250227T154022Z-001/polys_Zambia_nonirrig_blue_03.geojson" }, "geometry": { "type": "Polygon", "coordinates": [ [ [ 31.664751152905044, -14.169188352666193 ], [ 31.664472203167492, -14.170145374580553 ], [ 31.666489224346691, -14.170291007996312 ], [ 31.666296105297619, -14.169250767261891 ], [ 31.664751152905044, -14.169188352666193 ] ] ] } },
{ "type": "Feature", "properties": { "id": "1", "layer": "polys_Zambia_nonirrig_blue_03", "path": "C:/Users/hssid/Downloads/drive-download-20250227T154022Z-001/polys_Zambia_nonirrig_blue_03.geojson" }, "geometry": { "type": "Polygon", "coordinates": [ [ [ 31.665630917461925, -14.174125294222131 ], [ 31.665824844070496, -14.174792980570835 ], [ 31.666699244209351, -14.174870996885634 ], [ 31.666657067795072, -14.174179728914455 ], [ 31.665630917461925, -14.174125294222131 ] ] ] } },
{ "type": "Feature", "properties": { "id": "2", "layer": "polys_Zambia_nonirrig_blue_03", "path": "C:/Users/hssid/Downloads/drive-download-20250227T154022Z-001/polys_Zambia_nonirrig_blue_03.geojson" }, "geometry": { "type": "Polygon", "coordinates": [ [ [ 31.6676333918765, -14.173987288036322 ], [ 31.667579747696191, -14.174268147641566 ], [ 31.66861508037594, -14.17433576193906 ], [ 31.668588258285784, -14.174018494676293 ], [ 31.6676333918765, -14.173987288036322 ] ] ] } },
{ "type": "Feature", "properties": { "id": "0", "layer": "polys_Zambia_nonirrig_blue_04", "path": "C:/Users/hssid/Downloads/drive-download-20250227T154022Z-001/polys_Zambia_nonirrig_blue_04.geojson" }, "geometry": { "type": "Polygon", "coordinates": [ [ [ 31.683423545185811, -14.327330028284347 ], [ 31.68301584941555, -14.328660602986004 ], [ 31.684689547840843, -14.329242726936133 ], [ 31.684968497578385, -14.32793294592391 ], [ 31.683423545185811, -14.327330028284347 ] ] ] } },
{ "type": "Feature", "properties": { "id": "1", "layer": "polys_Zambia_nonirrig_blue_04", "path": "C:/Users/hssid/Downloads/drive-download-20250227T154022Z-001/polys_Zambia_nonirrig_blue_04.geojson" }, "geometry": { "type": "Polygon", "coordinates": [ [ [ 31.677044247079849, -14.334781736038114 ], [ 31.677582892637041, -14.336855657950361 ], [ 31.678328822599241, -14.336793289716802 ], [ 31.677899669156862, -14.33490144505409 ], [ 31.677044247079849, -14.334781736038114 ] ] ] } },
{ "type": "Feature", "properties": { "id": "2", "layer": "polys_Zambia_nonirrig_blue_04", "path": "C:/Users/hssid/Downloads/drive-download-20250227T154022Z-001/polys_Zambia_nonirrig_blue_04.geojson" }, "geometry": { "type": "Polygon", "coordinates": [ [ [ 31.681057439395673, -14.335852805687065 ], [ 31.682387815067059, -14.337017014736142 ], [ 31.682795510837327, -14.336289384788957 ], [ 31.682538018771893, -14.335333067552506 ], [ 31.681250558444745, -14.334875696997454 ], [ 31.681057439395673, -14.335852805687065 ] ] ] } },
{ "type": "Feature", "properties": { "id": "3", "layer": "polys_Zambia_nonirrig_blue_04", "path": "C:/Users/hssid/Downloads/drive-download-20250227T154022Z-001/polys_Zambia_nonirrig_blue_04.geojson" }, "geometry": { "type": "Polygon", "coordinates": [ [ [ 31.670543180057294, -14.325873623033861 ], [ 31.668311582156907, -14.325873623033861 ], [ 31.668783650943521, -14.328035816953641 ], [ 31.670671926090002, -14.327578431516224 ], [ 31.670543180057294, -14.325873623033861 ] ] ] } },
{ "type": "Feature", "properties": { "id": "4", "layer": "polys_Zambia_nonirrig_blue_04", "path": "C:/Users/hssid/Downloads/drive-download-20250227T154022Z-001/polys_Zambia_nonirrig_blue_04.geojson" }, "geometry": { "type": "Polygon", "coordinates": [ [ [ 31.690310347934922, -14.335535368366505 ], [ 31.689280379673203, -14.337032209581448 ], [ 31.692584861179558, -14.338030098172281 ], [ 31.692842353244984, -14.336366948053076 ], [ 31.690310347934922, -14.335535368366505 ] ] ] } },
{ "type": "Feature", "properties": { "id": "0", "layer": "polys_Zambia_nonirrig_blue_09", "path": "C:/Users/hssid/Downloads/drive-download-20250227T154022Z-001/polys_Zambia_nonirrig_blue_09.geojson" }, "geometry": { "type": "Polygon", "coordinates": [ [ [ 31.934144845857315, -14.262732772810329 ], [ 31.934681287660304, -14.263169493947384 ], [ 31.936129680528332, -14.262452023061087 ], [ 31.9356897982499, -14.262046495028148 ], [ 31.934144845857315, -14.262732772810329 ] ] ] } },
{ "type": "Feature", "properties": { "id": "1", "layer": "polys_Zambia_nonirrig_blue_09", "path": "C:/Users/hssid/Downloads/drive-download-20250227T154022Z-001/polys_Zambia_nonirrig_blue_09.geojson" }, "geometry": { "type": "Polygon", "coordinates": [ [ [ 31.936719766511612, -14.263795459403058 ], [ 31.937406412019431, -14.264065809408198 ], [ 31.938050142183005, -14.262901222460282 ], [ 31.937256208314597, -14.262776444930378 ], [ 31.936719766511612, -14.263795459403058 ] ] ] } },
{ "type": "Feature", "properties": { "id": "2", "layer": "polys_Zambia_nonirrig_blue_09", "path": "C:/Users/hssid/Downloads/drive-download-20250227T154022Z-001/polys_Zambia_nonirrig_blue_09.geojson" }, "geometry": { "type": "Polygon", "coordinates": [ [ [ 31.948420744780684, -14.253875707882605 ], [ 31.94876406753459, -14.254125272725345 ], [ 31.949279051665449, -14.253251794567614 ], [ 31.948742609862471, -14.252939837262929 ], [ 31.948420744780684, -14.253875707882605 ] ] ] } },
{ "type": "Feature", "properties": { "id": "0", "layer": "polys_Zambia_nonirrig_purple_01", "path": "C:/Users/hssid/Downloads/drive-download-20250227T154022Z-001/polys_Zambia_nonirrig_purple_01.geojson" }, "geometry": { "type": "Polygon", "coordinates": [ [ [ 31.966585973992032, -13.943000837666887 ], [ 31.967117051376984, -13.942698868568218 ], [ 31.966655711426423, -13.94189188024499 ], [ 31.966446499123258, -13.941959563245023 ], [ 31.966301659836457, -13.942240707801911 ], [ 31.966585973992032, -13.943000837666887 ] ] ] } },
{ "type": "Feature", "properties": { "id": "1", "layer": "polys_Zambia_nonirrig_purple_01", "path": "C:/Users/hssid/Downloads/drive-download-20250227T154022Z-001/polys_Zambia_nonirrig_purple_01.geojson" }, "geometry": { "type": "Polygon", "coordinates": [ [ [ 31.977751049777304, -13.919017853441323 ], [ 31.977327260752954, -13.918559645702487 ], [ 31.977091226359637, -13.918705439172433 ], [ 31.977064404269495, -13.919174060417481 ], [ 31.976860556384356, -13.919460439599593 ], [ 31.977295074244783, -13.919684335803977 ], [ 31.977606210490503, -13.919580198061468 ], [ 31.977751049777304, -13.919017853441323 ] ] ] } },
{ "type": "Feature", "properties": { "id": "2", "layer": "polys_Zambia_nonirrig_purple_01", "path": "C:/Users/hssid/Downloads/drive-download-20250227T154022Z-001/polys_Zambia_nonirrig_purple_01.geojson" }, "geometry": { "type": "Polygon", "coordinates": [ [ [ 32.106123420719662, -14.021965612560368 ], [ 32.108397933964284, -14.029002088652913 ], [ 32.116895172123471, -14.025962690552115 ], [ 32.114526744579109, -14.019175943949842 ], [ 32.106123420719662, -14.021965612560368 ] ] ] } },
{ "type": "Feature", "properties": { "id": "0", "layer": "polys_Zambia_nonirrig_purple_02", "path": "C:/Users/hssid/Downloads/drive-download-20250227T154022Z-001/polys_Zambia_nonirrig_purple_02.geojson" }, "geometry": { "type": "Polygon", "coordinates": [ [ [ 31.000528801257758, -14.397757524659557 ], [ 31.000475157077449, -14.398349860712376 ], [ 31.001966465289737, -14.398796709676786 ], [ 31.00205229597821, -14.398131631823189 ], [ 31.000528801257758, -14.397757524659557 ] ] ] } },
{ "type": "Feature", "properties": { "id": "1", "layer": "polys_Zambia_nonirrig_purple_02", "path": "C:/Users/hssid/Downloads/drive-download-20250227T154022Z-001/polys_Zambia_nonirrig_purple_02.geojson" }, "geometry": { "type": "Polygon", "coordinates": [ [ [ 30.993329752261786, -14.39637540108961 ], [ 30.99420951681866, -14.396541672047141 ], [ 30.994316805179253, -14.395575220374276 ], [ 30.993619430835391, -14.395523260488385 ], [ 30.993329752261786, -14.39637540108961 ] ] ] } },
{ "type": "Feature", "properties": { "id": "2", "layer": "polys_Zambia_nonirrig_purple_02", "path": "C:/Users/hssid/Downloads/drive-download-20250227T154022Z-001/polys_Zambia_nonirrig_purple_02.geojson" }, "geometry": { "type": "Polygon", "coordinates": [ [ [ 30.993994940097473, -14.395149148952957 ], [ 30.994692314441345, -14.395253068886801 ], [ 30.994703043277397, -14.393974850338605 ], [ 30.994048584277767, -14.393954066236699 ], [ 30.993994940097473, -14.395149148952957 ] ] ] } },
{ "type": "Feature", "properties": { "id": "0", "layer": "polys_Zambia_nonirrig_purple_07", "path": "C:/Users/hssid/Downloads/drive-download-20250227T154022Z-001/polys_Zambia_nonirrig_purple_07.geojson" }, "geometry": { "type": "Polygon", "coordinates": [ [ [ 31.279243667470478, -14.601186755484115 ], [ 31.280574043141865, -14.601186755484115 ], [ 31.280574043141865, -14.600470373062725 ], [ 31.279243667470478, -14.600470373062725 ], [ 31.279243667470478, -14.601186755484115 ] ] ] } },
{ "type": "Feature", "properties": { "id": "1", "layer": "polys_Zambia_nonirrig_purple_07", "path": "C:/Users/hssid/Downloads/drive-download-20250227T154022Z-001/polys_Zambia_nonirrig_purple_07.geojson" }, "geometry": { "type": "Polygon", "coordinates": [ [ [ 31.2766902044883, -14.604810161256712 ], [ 31.277505596028828, -14.604810161256712 ], [ 31.277505596028828, -14.604176848220964 ], [ 31.2766902044883, -14.604176848220964 ], [ 31.2766902044883, -14.604810161256712 ] ] ] } },
{ "type": "Feature", "properties": { "id": "2", "layer": "polys_Zambia_nonirrig_purple_07", "path": "C:/Users/hssid/Downloads/drive-download-20250227T154022Z-001/polys_Zambia_nonirrig_purple_07.geojson" }, "geometry": { "type": "Polygon", "coordinates": [ [ [ 31.263525922643208, -14.604426020780551 ], [ 31.264641721593403, -14.604426020780551 ], [ 31.264641721593403, -14.601685107096747 ], [ 31.263525922643208, -14.601685107096747 ], [ 31.263525922643208, -14.604426020780551 ] ] ] } },
{ "type": "Feature", "properties": { "id": "0", "layer": "polys_Zambia_nonirrig_red_01", "path": "C:/Users/hssid/Downloads/drive-download-20250227T154022Z-001/polys_Zambia_nonirrig_red_01.geojson" }, "geometry": { "type": "Polygon", "coordinates": [ [ [ 32.541093270902913, -13.741872158472443 ], [ 32.540749948149006, -13.744081555126076 ], [ 32.543110292082105, -13.744373360673487 ], [ 32.543754022245686, -13.742372401048964 ], [ 32.541093270902913, -13.741872158472443 ] ] ] } },
{ "type": "Feature", "properties": { "id": "1", "layer": "polys_Zambia_nonirrig_red_01", "path": "C:/Users/hssid/Downloads/drive-download-20250227T154022Z-001/polys_Zambia_nonirrig_red_01.geojson" }, "geometry": { "type": "Polygon", "coordinates": [ [ [ 32.524721067076008, -13.743643846123399 ], [ 32.526094358091633, -13.743998182045758 ], [ 32.52618018878011, -13.742956016038233 ], [ 32.524592321043293, -13.742559991739773 ], [ 32.524721067076008, -13.743643846123399 ] ] ] } },
{ "type": "Feature", "properties": { "id": "2", "layer": "polys_Zambia_nonirrig_red_01", "path": "C:/Users/hssid/Downloads/drive-download-20250227T154022Z-001/polys_Zambia_nonirrig_red_01.geojson" }, "geometry": { "type": "Polygon", "coordinates": [ [ [ 32.52000037920979, -13.740402689727146 ], [ 32.519893090849202, -13.741226010230315 ], [ 32.521255653028767, -13.741434445341836 ], [ 32.521395127897556, -13.740569438417106 ], [ 32.52000037920979, -13.740402689727146 ] ] ] } },
{ "type": "Feature", "properties": { "id": "0", "layer": "polys_Zambia_nonirrig_red_02", "path": "C:/Users/hssid/Downloads/drive-download-20250227T154022Z-001/polys_Zambia_nonirrig_red_02.geojson" }, "geometry": { "type": "Polygon", "coordinates": [ [ [ 32.525534895052175, -13.946755026210052 ], [ 32.52540614901946, -13.947765041476941 ], [ 32.527197864641408, -13.948108653910168 ], [ 32.527197864641408, -13.947004927306324 ], [ 32.525534895052175, -13.946755026210052 ] ] ] } },
{ "type": "Feature", "properties": { "id": "1", "layer": "polys_Zambia_nonirrig_red_02", "path": "C:/Users/hssid/Downloads/drive-download-20250227T154022Z-001/polys_Zambia_nonirrig_red_02.geojson" }, "geometry": { "type": "Polygon", "coordinates": [ [ [ 32.526945054658384, -13.941817899802068 ], [ 32.527181089051695, -13.943046603875143 ], [ 32.529069364198186, -13.942609269276913 ], [ 32.529112279542417, -13.941193132510463 ], [ 32.526945054658384, -13.941817899802068 ] ] ] } },
{ "type": "Feature", "properties": { "id": "2", "layer": "polys_Zambia_nonirrig_red_02", "path": "C:/Users/hssid/Downloads/drive-download-20250227T154022Z-001/polys_Zambia_nonirrig_red_02.geojson" }, "geometry": { "type": "Polygon", "coordinates": [ [ [ 32.519926159473158, -13.951309809479316 ], [ 32.52012464294026, -13.951809601532254 ], [ 32.521433560939528, -13.950914140002636 ], [ 32.521154611201979, -13.950549706989374 ], [ 32.519926159473158, -13.951309809479316 ] ] ] } },
{ "type": "Feature", "properties": { "id": "0", "layer": "polys_Zambia_nonirrig_red_03", "path": "C:/Users/hssid/Downloads/drive-download-20250227T154022Z-001/polys_Zambia_nonirrig_red_03.geojson" }, "geometry": { "type": "Polygon", "coordinates": [ [ [ 32.364374299525402, -13.803350947970692 ], [ 32.364771266459613, -13.804715831769805 ], [ 32.365983624934344, -13.804653318182583 ], [ 32.365243335246234, -13.802694550627242 ], [ 32.364374299525402, -13.803350947970692 ] ] ] } },
{ "type": "Feature", "properties": { "id": "1", "layer": "polys_Zambia_nonirrig_red_03", "path": "C:/Users/hssid/Downloads/drive-download-20250227T154022Z-001/polys_Zambia_nonirrig_red_03.geojson" }, "geometry": { "type": "Polygon", "coordinates": [ [ [ 32.356724639414935, -13.803715612363199 ], [ 32.358763118266253, -13.804205303650383 ], [ 32.358752389430194, -13.803173825060016 ], [ 32.35684265661159, -13.802913349947003 ], [ 32.356724639414935, -13.803715612363199 ] ] ] } },
{ "type": "Feature", "properties": { "id": "2", "layer": "polys_Zambia_nonirrig_red_03", "path": "C:/Users/hssid/Downloads/drive-download-20250227T154022Z-001/polys_Zambia_nonirrig_red_03.geojson" }, "geometry": { "type": "Polygon", "coordinates": [ [ [ 32.364191909312396, -13.795296929044508 ], [ 32.363634009837298, -13.796213830088343 ], [ 32.365783152634741, -13.797656290525021 ], [ 32.366062102372297, -13.796051721253383 ], [ 32.364191909312396, -13.795296929044508 ] ] ] } },
{ "type": "Feature", "properties": { "id": "0", "layer": "polys_Zambia_nonirrig_red_04", "path": "C:/Users/hssid/Downloads/drive-download-20250227T154022Z-001/polys_Zambia_nonirrig_red_04.geojson" }, "geometry": { "type": "Polygon", "coordinates": [ [ [ 32.292319975205849, -13.650455454139694 ], [ 32.293178282090622, -13.6507108857235 ], [ 32.293441138574075, -13.64970479645611 ], [ 32.292668662377785, -13.649527557487845 ], [ 32.292319975205849, -13.650455454139694 ] ] ] } },
{ "type": "Feature", "properties": { "id": "1", "layer": "polys_Zambia_nonirrig_red_04", "path": "C:/Users/hssid/Downloads/drive-download-20250227T154022Z-001/polys_Zambia_nonirrig_red_04.geojson" }, "geometry": { "type": "Polygon", "coordinates": [ [ [ 32.295295642835754, -13.650931964607459 ], [ 32.295311736089843, -13.651766024214394 ], [ 32.296577738744872, -13.651823365704043 ], [ 32.296593831998962, -13.650926751725654 ], [ 32.295295642835754, -13.650931964607459 ] ] ] } },
{ "type": "Feature", "properties": { "id": "2", "layer": "polys_Zambia_nonirrig_red_04", "path": "C:/Users/hssid/Downloads/drive-download-20250227T154022Z-001/polys_Zambia_nonirrig_red_04.geojson" }, "geometry": { "type": "Polygon", "coordinates": [ [ [ 32.28666429422583, -13.651234311555706 ], [ 32.287340210897582, -13.651880707179737 ], [ 32.287704991323608, -13.650984093419293 ], [ 32.286878870947021, -13.650577488381584 ], [ 32.28666429422583, -13.651234311555706 ] ] ] } },
{ "type": "Feature", "properties": { "id": "0", "layer": "polys_Zambia_nonirrig_red_06", "path": "C:/Users/hssid/Downloads/drive-download-20250227T154022Z-001/polys_Zambia_nonirrig_red_06.geojson" }, "geometry": { "type": "Polygon", "coordinates": [ [ [ 31.896946460939503, -14.000293131381573 ], [ 31.899306804872609, -14.000293131381573 ], [ 31.899306804872609, -13.998315198075135 ], [ 31.896946460939503, -13.998315198075135 ], [ 31.896946460939503, -14.000293131381573 ] ] ] } },
{ "type": "Feature", "properties": { "id": "1", "layer": "polys_Zambia_nonirrig_red_06", "path": "C:/Users/hssid/Downloads/drive-download-20250227T154022Z-001/polys_Zambia_nonirrig_red_06.geojson" }, "geometry": { "type": "Polygon", "coordinates": [ [ [ 31.918054742355956, -13.936012934189677 ], [ 31.919320745010985, -13.936012934189677 ], [ 31.919320745010985, -13.934971628247242 ], [ 31.918054742355956, -13.934971628247242 ], [ 31.918054742355956, -13.936012934189677 ] ] ] } },
{ "type": "Feature", "properties": { "id": "2", "layer": "polys_Zambia_nonirrig_red_06", "path": "C:/Users/hssid/Downloads/drive-download-20250227T154022Z-001/polys_Zambia_nonirrig_red_06.geojson" }, "geometry": { "type": "Polygon", "coordinates": [ [ [ 32.107413141463667, -14.029594839735788 ], [ 32.111533014510542, -14.029594839735788 ], [ 32.111533014510542, -14.025389645284335 ], [ 32.107413141463667, -14.025389645284335 ], [ 32.107413141463667, -14.029594839735788 ] ] ] } },
{ "type": "Feature", "properties": { "id": "3", "layer": "polys_Zambia_nonirrig_red_06", "path": "C:/Users/hssid/Downloads/drive-download-20250227T154022Z-001/polys_Zambia_nonirrig_red_06.geojson" }, "geometry": { "type": "Polygon", "coordinates": [ [ [ 32.097436555986562, -14.000677641499697 ], [ 32.100612291460195, -14.000677641499697 ], [ 32.100612291460195, -13.997512945333384 ], [ 32.097436555986562, -13.997512945333384 ], [ 32.097436555986562, -14.000677641499697 ] ] ] } },
{ "type": "Feature", "properties": { "id": "0", "layer": "polys_Zambia_nonirrig_red_07", "path": "C:/Users/hssid/Downloads/drive-download-20250227T154022Z-001/polys_Zambia_nonirrig_red_07.geojson" }, "geometry": { "type": "Polygon", "coordinates": [ [ [ 32.985172110031932, -14.001251061671203 ], [ 32.984866338204242, -14.00212030229987 ], [ 32.985504703949779, -14.002359733272639 ], [ 32.985805111359447, -14.001329137311181 ], [ 32.985172110031932, -14.001251061671203 ] ] ] } },
{ "type": "Feature", "properties": { "id": "1", "layer": "polys_Zambia_nonirrig_red_07", "path": "C:/Users/hssid/Downloads/drive-download-20250227T154022Z-001/polys_Zambia_nonirrig_red_07.geojson" }, "geometry": { "type": "Polygon", "coordinates": [ [ [ 32.987425165604442, -14.001709105047066 ], [ 32.988090353440136, -14.002219197731918 ], [ 32.988530235718571, -14.001761155372918 ], [ 32.988004522751659, -14.001230241496053 ], [ 32.987425165604442, -14.001709105047066 ] ] ] } },
{ "type": "Feature", "properties": { "id": "2", "layer": "polys_Zambia_nonirrig_red_07", "path": "C:/Users/hssid/Downloads/drive-download-20250227T154022Z-001/polys_Zambia_nonirrig_red_07.geojson" }, "geometry": { "type": "Polygon", "coordinates": [ [ [ 32.981942730378002, -14.003333069658259 ], [ 32.98205001873859, -14.004228327291997 ], [ 32.98299415631184, -14.004061767996387 ], [ 32.982661562393993, -14.003197739712403 ], [ 32.981942730378002, -14.003333069658259 ] ] ] } },
{ "type": "Feature", "properties": { "id": "0", "layer": "polys_Zambia_nonirrig_red_08", "path": "C:/Users/hssid/Downloads/drive-download-20250227T154022Z-001/polys_Zambia_nonirrig_red_08.geojson" }, "geometry": { "type": "Polygon", "coordinates": [ [ [ 32.808761515356636, -13.358362431966432 ], [ 32.809491076208687, -13.358362431966432 ], [ 32.809491076208687, -13.357673486217456 ], [ 32.808761515356636, -13.357673486217456 ], [ 32.808761515356636, -13.358362431966432 ] ] ] } },
{ "type": "Feature", "properties": { "id": "1", "layer": "polys_Zambia_nonirrig_red_08", "path": "C:/Users/hssid/Downloads/drive-download-20250227T154022Z-001/polys_Zambia_nonirrig_red_08.geojson" }, "geometry": { "type": "Polygon", "coordinates": [ [ [ 32.806208052374458, -13.354374870225715 ], [ 32.807001986242867, -13.354374870225715 ], [ 32.807001986242867, -13.353539770417715 ], [ 32.806208052374458, -13.353539770417715 ], [ 32.806208052374458, -13.354374870225715 ] ] ] } },
{ "type": "Feature", "properties": { "id": "2", "layer": "polys_Zambia_nonirrig_red_08", "path": "C:/Users/hssid/Downloads/drive-download-20250227T154022Z-001/polys_Zambia_nonirrig_red_08.geojson" }, "geometry": { "type": "Polygon", "coordinates": [ [ [ 32.815872691440418, -13.352570378256175 ], [ 32.816709540653065, -13.352570378256175 ], [ 32.816709540653065, -13.351787466417976 ], [ 32.815872691440418, -13.351787466417976 ], [ 32.815872691440418, -13.352570378256175 ] ] ] } }
]
}
