{
"type": "FeatureCollection",
"name": "Zambia_evergreen",
"crs": { "type": "name", "properties": { "name": "urn:ogc:def:crs:OGC:1.3:CRS84" } },
"features": [
{ "type": "Feature", "properties": { "id": "0", "layer": "polys_Zambia_evergreen_blue_03", "path": "C:/Users/hssid/Downloads/drive-download-20250227T154022Z-001/polys_Zambia_evergreen_blue_03.geojson" }, "geometry": { "type": "Polygon", "coordinates": [ [ [ 31.743398996461433, -14.2709787435429 ], [ 31.745174618829289, -14.27138945436703 ], [ 31.745512577165169, -14.270796782811816 ], [ 31.743361445535228, -14.270178115226695 ], [ 31.743398996461433, -14.2709787435429 ] ] ] } },
{ "type": "Feature", "properties": { "id": "1", "layer": "polys_Zambia_evergreen_blue_03", "path": "C:/Users/hssid/Downloads/drive-download-20250227T154022Z-001/polys_Zambia_evergreen_blue_03.geojson" }, "geometry": { "type": "Polygon", "coordinates": [ [ [ 31.73116444525937, -14.270354972649743 ], [ 31.733224381782808, -14.270562928166857 ], [ 31.73348187384823, -14.268192223892068 ], [ 31.731336106636327, -14.268608138727139 ], [ 31.73116444525937, -14.270354972649743 ] ] ] } },
{ "type": "Feature", "properties": { "id": "2", "layer": "polys_Zambia_evergreen_blue_03", "path": "C:/Users/hssid/Downloads/drive-download-20250227T154022Z-001/polys_Zambia_evergreen_blue_03.geojson" }, "geometry": { "type": "Polygon", "coordinates": [ [ [ 31.728343033534482, -14.257289741690997 ], [ 31.732462906581365, -14.257622489715658 ], [ 31.732806229335264, -14.256093924424174 ], [ 31.729469561320727, -14.25577157259756 ], [ 31.728300118190241, -14.256114721300396 ], [ 31.728343033534482, -14.257289741690997 ] ] ] } },
{ "type": "Feature", "properties": { "id": "3", "layer": "polys_Zambia_evergreen_blue_03", "path": "C:/Users/hssid/Downloads/drive-download-20250227T154022Z-001/polys_Zambia_evergreen_blue_03.geojson" }, "geometry": { "type": "Polygon", "coordinates": [ [ [ 31.75458067132957, -14.226996295106771 ], [ 31.755986148853378, -14.226575103664466 ], [ 31.756218371959793, -14.225847116604628 ], [ 31.754678783985248, -14.225810717190074 ], [ 31.75458067132957, -14.226996295106771 ] ] ] } },
{ "type": "Feature", "properties": { "id": "4", "layer": "polys_Zambia_evergreen_blue_03", "path": "C:/Users/hssid/Downloads/drive-download-20250227T154022Z-001/polys_Zambia_evergreen_blue_03.geojson" }, "geometry": { "type": "Polygon", "coordinates": [ [ [ 31.731480411310212, -14.212423839181563 ], [ 31.73218315007211, -14.212709851356456 ], [ 31.732395237198379, -14.212122225950855 ], [ 31.731730049362685, -14.212044222463666 ], [ 31.731480411310212, -14.212423839181563 ] ] ] } },
{ "type": "Feature", "properties": { "id": "5", "layer": "polys_Zambia_evergreen_blue_03", "path": "C:/Users/hssid/Downloads/drive-download-20250227T154022Z-001/polys_Zambia_evergreen_blue_03.geojson" }, "geometry": { "type": "Polygon", "coordinates": [ [ [ 31.732462099809663, -14.213115468002622 ], [ 31.732295802850743, -14.213432680513989 ], [ 31.732751778383278, -14.213703090828187 ], [ 31.732934168596291, -14.21322987256621 ], [ 31.732462099809663, -14.213115468002622 ] ] ] } },
{ "type": "Feature", "properties": { "id": "0", "layer": "polys_Zambia_evergreen_blue_04", "path": "C:/Users/hssid/Downloads/drive-download-20250227T154022Z-001/polys_Zambia_evergreen_blue_04.geojson" }, "geometry": { "type": "Polygon", "coordinates": [ [ [ 31.675097751063518, -14.334050767331027 ], [ 31.676835822505168, -14.334050767331027 ], [ 31.676835822505168, -14.331847051654334 ], [ 31.675097751063518, -14.331847051654334 ], [ 31.675097751063518, -14.334050767331027 ] ] ] } },
{ "type": "Feature", "properties": { "id": "1", "layer": "polys_Zambia_evergreen_blue_04", "path": "C:/Users/hssid/Downloads/drive-download-20250227T154022Z-001/polys_Zambia_evergreen_blue_04.geojson" }, "geometry": { "type": "Polygon", "coordinates": [ [ [ 31.68679218236845, -14.323468576482481 ], [ 31.687693404597454, -14.323468576482481 ], [ 31.687693404597454, -14.321805318383548 ], [ 31.68679218236845, -14.321805318383548 ], [ 31.68679218236845, -14.323468576482481 ] ] ] } },
{ "type": "Feature", "properties": { "id": "2", "layer": "polys_Zambia_evergreen_blue_04", "path": "C:/Users/hssid/Downloads/drive-download-20250227T154022Z-001/polys_Zambia_evergreen_blue_04.geojson" }, "geometry": { "type": "Polygon", "coordinates": [ [ [ 31.677439314313574, -14.32390507373767 ], [ 31.678372723050757, -14.32390507373767 ], [ 31.678372723050757, -14.322969494393762 ], [ 31.677439314313574, -14.322969494393762 ], [ 31.677439314313574, -14.32390507373767 ] ] ] } },
{ "type": "Feature", "properties": { "id": "3", "layer": "polys_Zambia_evergreen_blue_04", "path": "C:/Users/hssid/Downloads/drive-download-20250227T154022Z-001/polys_Zambia_evergreen_blue_04.geojson" }, "geometry": { "type": "Polygon", "coordinates": [ [ [ 31.656961409071503, -14.319829763193241 ], [ 31.658323971251068, -14.319829763193241 ], [ 31.658323971251068, -14.319050099853369 ], [ 31.656961409071503, -14.319050099853369 ], [ 31.656961409071503, -14.319829763193241 ] ] ] } },
{ "type": "Feature", "properties": { "id": "4", "layer": "polys_Zambia_evergreen_blue_04", "path": "C:/Users/hssid/Downloads/drive-download-20250227T154022Z-001/polys_Zambia_evergreen_blue_04.geojson" }, "geometry": { "type": "Polygon", "coordinates": [ [ [ 31.65628549239975, -14.318208060404626 ], [ 31.657004324415741, -14.318208060404626 ], [ 31.657004324415741, -14.31709573184636 ], [ 31.65628549239975, -14.31709573184636 ], [ 31.65628549239975, -14.318208060404626 ] ] ] } },
{ "type": "Feature", "properties": { "id": "5", "layer": "polys_Zambia_evergreen_blue_04", "path": "C:/Users/hssid/Downloads/drive-download-20250227T154022Z-001/polys_Zambia_evergreen_blue_04.geojson" }, "geometry": { "type": "Polygon", "coordinates": [ [ [ 31.606292108073792, -14.286347353516106 ], [ 31.612986901774963, -14.286347353516106 ], [ 31.612986901774963, -14.28002586314445 ], [ 31.606292108073792, -14.28002586314445 ], [ 31.606292108073792, -14.286347353516106 ] ] ] } },
{ "type": "Feature", "properties": { "id": "6", "layer": "polys_Zambia_evergreen_blue_04", "path": "C:/Users/hssid/Downloads/drive-download-20250227T154022Z-001/polys_Zambia_evergreen_blue_04.geojson" }, "geometry": { "type": "Polygon", "coordinates": [ [ [ 31.647253638688063, -14.242801017579664 ], [ 31.653605109635329, -14.242801017579664 ], [ 31.653605109635329, -14.237393446151481 ], [ 31.647253638688063, -14.237393446151481 ], [ 31.647253638688063, -14.242801017579664 ] ] ] } },
{ "type": "Feature", "properties": { "id": "0", "layer": "polys_Zambia_evergreen_blue_09", "path": "C:/Users/hssid/Downloads/drive-download-20250227T154022Z-001/polys_Zambia_evergreen_blue_09.geojson" }, "geometry": { "type": "Polygon", "coordinates": [ [ [ 31.947540103470484, -14.238034110638514 ], [ 31.949170886551538, -14.238034110638514 ], [ 31.949170886551538, -14.236328623778247 ], [ 31.947540103470484, -14.236328623778247 ], [ 31.947540103470484, -14.238034110638514 ] ] ] } },
{ "type": "Feature", "properties": { "id": "1", "layer": "polys_Zambia_evergreen_blue_09", "path": "C:/Users/hssid/Downloads/drive-download-20250227T154022Z-001/polys_Zambia_evergreen_blue_09.geojson" }, "geometry": { "type": "Polygon", "coordinates": [ [ [ 31.950329600845972, -14.231794461929692 ], [ 31.950994788681665, -14.231794461929692 ], [ 31.950994788681665, -14.230608909188824 ], [ 31.950329600845972, -14.230608909188824 ], [ 31.950329600845972, -14.231794461929692 ] ] ] } },
{ "type": "Feature", "properties": { "id": "2", "layer": "polys_Zambia_evergreen_blue_09", "path": "C:/Users/hssid/Downloads/drive-download-20250227T154022Z-001/polys_Zambia_evergreen_blue_09.geojson" }, "geometry": { "type": "Polygon", "coordinates": [ [ [ 31.950602734101228, -14.253231910190243 ], [ 31.95086961389821, -14.253231910190243 ], [ 31.95086961389821, -14.253075931578081 ], [ 31.950602734101228, -14.253075931578081 ], [ 31.950602734101228, -14.253231910190243 ] ] ] } },
{ "type": "Feature", "properties": { "id": "0", "layer": "polys_Zambia_evergreen_purple_01", "path": "C:/Users/hssid/Downloads/drive-download-20250227T154022Z-001/polys_Zambia_evergreen_purple_01.geojson" }, "geometry": { "type": "Polygon", "coordinates": [ [ [ 30.834892403857971, -14.659836747036538 ], [ 30.835525405185486, -14.659836747036538 ], [ 30.835525405185486, -14.659291819299307 ], [ 30.834892403857971, -14.659291819299307 ], [ 30.834892403857971, -14.659836747036538 ] ] ] } },
{ "type": "Feature", "properties": { "id": "1", "layer": "polys_Zambia_evergreen_purple_01", "path": "C:/Users/hssid/Downloads/drive-download-20250227T154022Z-001/polys_Zambia_evergreen_purple_01.geojson" }, "geometry": { "type": "Polygon", "coordinates": [ [ [ 30.842312752068096, -14.663918792652089 ], [ 30.843444644272381, -14.663918792652089 ], [ 30.843444644272381, -14.662735541325169 ], [ 30.842312752068096, -14.662735541325169 ], [ 30.842312752068096, -14.663918792652089 ] ] ] } },
{ "type": "Feature", "properties": { "id": "2", "layer": "polys_Zambia_evergreen_purple_01", "path": "C:/Users/hssid/Downloads/drive-download-20250227T154022Z-001/polys_Zambia_evergreen_purple_01.geojson" }, "geometry": { "type": "Polygon", "coordinates": [ [ [ 30.825654220062184, -14.668866660307945 ], [ 30.827048968749928, -14.668866660307945 ], [ 30.827048968749928, -14.667735331671706 ], [ 30.825654220062184, -14.667735331671706 ], [ 30.825654220062184, -14.668866660307945 ] ] ] } },
{ "type": "Feature", "properties": { "id": "0", "layer": "polys_Zambia_evergreen_purple_02", "path": "C:/Users/hssid/Downloads/drive-download-20250227T154022Z-001/polys_Zambia_evergreen_purple_02.geojson" }, "geometry": { "type": "Polygon", "coordinates": [ [ [ 31.004528735801618, -14.395715936038972 ], [ 31.005928848907391, -14.395715936038972 ], [ 31.005928848907391, -14.395087221003827 ], [ 31.004528735801618, -14.395087221003827 ], [ 31.004528735801618, -14.395715936038972 ] ] ] } },
{ "type": "Feature", "properties": { "id": "1", "layer": "polys_Zambia_evergreen_purple_02", "path": "C:/Users/hssid/Downloads/drive-download-20250227T154022Z-001/polys_Zambia_evergreen_purple_02.geojson" }, "geometry": { "type": "Polygon", "coordinates": [ [ [ 30.998622849987861, -14.396040941949625 ], [ 30.998923257397529, -14.396040941949625 ], [ 30.998923257397529, -14.395831803771635 ], [ 30.998622849987861, -14.395831803771635 ], [ 30.998622849987861, -14.396040941949625 ] ] ] } },
{ "type": "Feature", "properties": { "id": "2", "layer": "polys_Zambia_evergreen_purple_02", "path": "C:/Users/hssid/Downloads/drive-download-20250227T154022Z-001/polys_Zambia_evergreen_purple_02.geojson" }, "geometry": { "type": "Polygon", "coordinates": [ [ [ 31.026797191990998, -14.419736068369424 ], [ 31.028309957875397, -14.419736068369424 ], [ 31.028309957875397, -14.41815665353294 ], [ 31.026797191990998, -14.41815665353294 ], [ 31.026797191990998, -14.419736068369424 ] ] ] } },
{ "type": "Feature", "properties": { "id": "0", "layer": "polys_Zambia_evergreen_purple_07", "path": "C:/Users/hssid/Downloads/drive-download-20250227T154022Z-001/polys_Zambia_evergreen_purple_07.geojson" }, "geometry": { "type": "Polygon", "coordinates": [ [ [ 31.277689837021331, -14.59866126380277 ], [ 31.278054617447356, -14.59866126380277 ], [ 31.278054617447356, -14.598310855625916 ], [ 31.277689837021331, -14.598310855625916 ], [ 31.277689837021331, -14.59866126380277 ] ] ] } },
{ "type": "Feature", "properties": { "id": "1", "layer": "polys_Zambia_evergreen_purple_07", "path": "C:/Users/hssid/Downloads/drive-download-20250227T154022Z-001/polys_Zambia_evergreen_purple_07.geojson" }, "geometry": { "type": "Polygon", "coordinates": [ [ [ 31.272293362649364, -14.61576042740389 ], [ 31.2728941774687, -14.61576042740389 ], [ 31.2728941774687, -14.614971420682624 ], [ 31.272293362649364, -14.614971420682624 ], [ 31.272293362649364, -14.61576042740389 ] ] ] } },
{ "type": "Feature", "properties": { "id": "2", "layer": "polys_Zambia_evergreen_purple_07", "path": "C:/Users/hssid/Downloads/drive-download-20250227T154022Z-001/polys_Zambia_evergreen_purple_07.geojson" }, "geometry": { "type": "Polygon", "coordinates": [ [ [ 31.283741475669007, -14.61756597806168 ], [ 31.284535409537416, -14.61756597806168 ], [ 31.284535409537416, -14.61706247165853 ], [ 31.283741475669007, -14.61706247165853 ], [ 31.283741475669007, -14.61756597806168 ] ] ] } },
{ "type": "Feature", "properties": { "id": "3", "layer": "polys_Zambia_evergreen_purple_07", "path": "C:/Users/hssid/Downloads/drive-download-20250227T154022Z-001/polys_Zambia_evergreen_purple_07.geojson" }, "geometry": { "type": "Polygon", "coordinates": [ [ [ 31.258738752242639, -14.603945602042803 ], [ 31.259639974471643, -14.603945602042803 ], [ 31.259639974471643, -14.603405726627372 ], [ 31.258738752242639, -14.603405726627372 ], [ 31.258738752242639, -14.603945602042803 ] ] ] } },
{ "type": "Feature", "properties": { "id": "0", "layer": "polys_Zambia_evergreen_red_01", "path": "C:/Users/hssid/Downloads/drive-download-20250227T154022Z-001/polys_Zambia_evergreen_red_01.geojson" }, "geometry": { "type": "Polygon", "coordinates": [ [ [ 32.554892802630704, -13.745403076291677 ], [ 32.55673816243295, -13.746799563096683 ], [ 32.558068538104337, -13.745142536787048 ], [ 32.556974196826253, -13.743152005407332 ], [ 32.555450702105801, -13.741995196677623 ], [ 32.553905749713223, -13.742422487053854 ], [ 32.554892802630704, -13.745403076291677 ] ] ] } },
{ "type": "Feature", "properties": { "id": "1", "layer": "polys_Zambia_evergreen_red_01", "path": "C:/Users/hssid/Downloads/drive-download-20250227T154022Z-001/polys_Zambia_evergreen_red_01.geojson" }, "geometry": { "type": "Polygon", "coordinates": [ [ [ 32.548455500994962, -13.743641823598534 ], [ 32.548798823748861, -13.744110797502728 ], [ 32.549099231158543, -13.743506342073649 ], [ 32.54874517956857, -13.743120740381636 ], [ 32.548455500994962, -13.743641823598534 ] ] ] } },
{ "type": "Feature", "properties": { "id": "2", "layer": "polys_Zambia_evergreen_red_01", "path": "C:/Users/hssid/Downloads/drive-download-20250227T154022Z-001/polys_Zambia_evergreen_red_01.geojson" }, "geometry": { "type": "Polygon", "coordinates": [ [ [ 32.525230832634577, -13.745086926447938 ], [ 32.525885291634204, -13.744920180973306 ], [ 32.526035495339045, -13.744128138347831 ], [ 32.524828501282343, -13.744180246497594 ], [ 32.525230832634577, -13.745086926447938 ] ] ] } },
{ "type": "Feature", "properties": { "id": "3", "layer": "polys_Zambia_evergreen_red_01", "path": "C:/Users/hssid/Downloads/drive-download-20250227T154022Z-001/polys_Zambia_evergreen_red_01.geojson" }, "geometry": { "type": "Polygon", "coordinates": [ [ [ 32.522356776624001, -13.747938878421495 ], [ 32.522930769353181, -13.749179029062569 ], [ 32.523569135098718, -13.748767383149406 ], [ 32.523628143697053, -13.747558494765862 ], [ 32.522356776624001, -13.747938878421495 ] ] ] } },
{ "type": "Feature", "properties": { "id": "0", "layer": "polys_Zambia_evergreen_red_02", "path": "C:/Users/hssid/Downloads/drive-download-20250227T154022Z-001/polys_Zambia_evergreen_red_02.geojson" }, "geometry": { "type": "Polygon", "coordinates": [ [ [ 32.539565766597988, -13.951035594538384 ], [ 32.544104064251187, -13.951035594538384 ], [ 32.544104064251187, -13.948796926683354 ], [ 32.539565766597988, -13.948796926683354 ], [ 32.539565766597988, -13.951035594538384 ] ] ] } },
{ "type": "Feature", "properties": { "id": "1", "layer": "polys_Zambia_evergreen_red_02", "path": "C:/Users/hssid/Downloads/drive-download-20250227T154022Z-001/polys_Zambia_evergreen_red_02.geojson" }, "geometry": { "type": "Polygon", "coordinates": [ [ [ 32.527206126512759, -13.957077316087116 ], [ 32.529121223749392, -13.957077316087116 ], [ 32.529121223749392, -13.955801832111533 ], [ 32.527206126512759, -13.955801832111533 ], [ 32.527206126512759, -13.957077316087116 ] ] ] } },
{ "type": "Feature", "properties": { "id": "2", "layer": "polys_Zambia_evergreen_red_02", "path": "C:/Users/hssid/Downloads/drive-download-20250227T154022Z-001/polys_Zambia_evergreen_red_02.geojson" }, "geometry": { "type": "Polygon", "coordinates": [ [ [ 32.492822328641651, -13.941697991311445 ], [ 32.500675836637257, -13.941697991311445 ], [ 32.500675836637257, -13.937907708450393 ], [ 32.492822328641651, -13.937907708450393 ], [ 32.492822328641651, -13.941697991311445 ] ] ] } },
{ "type": "Feature", "properties": { "id": "0", "layer": "polys_Zambia_evergreen_red_03", "path": "C:/Users/hssid/Downloads/drive-download-20250227T154022Z-001/polys_Zambia_evergreen_red_03.geojson" }, "geometry": { "type": "Polygon", "coordinates": [ [ [ 32.342511835589839, -13.803845999831797 ], [ 32.343879762187434, -13.803845999831797 ], [ 32.343879762187434, -13.802496739485683 ], [ 32.342511835589839, -13.802496739485683 ], [ 32.342511835589839, -13.803845999831797 ] ] ] } },
{ "type": "Feature", "properties": { "id": "1", "layer": "polys_Zambia_evergreen_red_03", "path": "C:/Users/hssid/Downloads/drive-download-20250227T154022Z-001/polys_Zambia_evergreen_red_03.geojson" }, "geometry": { "type": "Polygon", "coordinates": [ [ [ 32.336455356386686, -13.802272434653466 ], [ 32.337512146738554, -13.802272434653466 ], [ 32.337512146738554, -13.801636872410233 ], [ 32.336455356386686, -13.801636872410233 ], [ 32.336455356386686, -13.802272434653466 ] ] ] } },
{ "type": "Feature", "properties": { "id": "2", "layer": "polys_Zambia_evergreen_red_03", "path": "C:/Users/hssid/Downloads/drive-download-20250227T154022Z-001/polys_Zambia_evergreen_red_03.geojson" }, "geometry": { "type": "Polygon", "coordinates": [ [ [ 32.246927313948405, -13.828350488119062 ], [ 32.248429350996744, -13.828350488119062 ], [ 32.248429350996744, -13.827496220974025 ], [ 32.246927313948405, -13.827496220974025 ], [ 32.246927313948405, -13.828350488119062 ] ] ] } },
{ "type": "Feature", "properties": { "id": "0", "layer": "polys_Zambia_evergreen_red_04", "path": "C:/Users/hssid/Downloads/drive-download-20250227T154022Z-001/polys_Zambia_evergreen_red_04.geojson" }, "geometry": { "type": "Polygon", "coordinates": [ [ [ 32.297022367950603, -13.612748486478885 ], [ 32.299146677490398, -13.612748486478885 ], [ 32.299146677490398, -13.61137205925457 ], [ 32.297022367950603, -13.61137205925457 ], [ 32.297022367950603, -13.612748486478885 ] ] ] } },
{ "type": "Feature", "properties": { "id": "1", "layer": "polys_Zambia_evergreen_red_04", "path": "C:/Users/hssid/Downloads/drive-download-20250227T154022Z-001/polys_Zambia_evergreen_red_04.geojson" }, "geometry": { "type": "Polygon", "coordinates": [ [ [ 32.293300092545302, -13.651586145912452 ], [ 32.293965280380995, -13.651586145912452 ], [ 32.293965280380995, -13.651234277107083 ], [ 32.293300092545302, -13.651234277107083 ], [ 32.293300092545302, -13.651586145912452 ] ] ] } },
{ "type": "Feature", "properties": { "id": "2", "layer": "polys_Zambia_evergreen_red_04", "path": "C:/Users/hssid/Downloads/drive-download-20250227T154022Z-001/polys_Zambia_evergreen_red_04.geojson" }, "geometry": { "type": "Polygon", "coordinates": [ [ [ 32.308979368134978, -13.654336875724624 ], [ 32.30954531423712, -13.654336875724624 ], [ 32.30954531423712, -13.65397458539374 ], [ 32.308979368134978, -13.65397458539374 ], [ 32.308979368134978, -13.654336875724624 ] ] ] } },
{ "type": "Feature", "properties": { "id": "0", "layer": "polys_Zambia_evergreen_red_06", "path": "C:/Users/hssid/Downloads/drive-download-20250227T154022Z-001/polys_Zambia_evergreen_red_06.geojson" }, "geometry": { "type": "Polygon", "coordinates": [ [ [ 32.098938593034902, -14.001177326384152 ], [ 32.100869783525624, -14.000261236599295 ], [ 32.098852762346418, -13.996305352415039 ], [ 32.097136148576894, -13.997263099043222 ], [ 32.098938593034902, -14.001177326384152 ] ] ] } },
{ "type": "Feature", "properties": { "id": "1", "layer": "polys_Zambia_evergreen_red_06", "path": "C:/Users/hssid/Downloads/drive-download-20250227T154022Z-001/polys_Zambia_evergreen_red_06.geojson" }, "geometry": { "type": "Polygon", "coordinates": [ [ [ 32.102114328508527, -13.994181639135569 ], [ 32.105204233293698, -14.000552720108816 ], [ 32.107435831194081, -13.999261861759775 ], [ 32.104045518999257, -13.993265521468025 ], [ 32.102114328508527, -13.994181639135569 ] ] ] } },
{ "type": "Feature", "properties": { "id": "2", "layer": "polys_Zambia_evergreen_red_06", "path": "C:/Users/hssid/Downloads/drive-download-20250227T154022Z-001/polys_Zambia_evergreen_red_06.geojson" }, "geometry": { "type": "Polygon", "coordinates": [ [ [ 31.972464666748539, -13.930150907994859 ], [ 31.972942099953194, -13.930765291892831 ], [ 31.973843322182201, -13.930530993141463 ], [ 31.973516092682381, -13.929765615564129 ], [ 31.972464666748539, -13.930150907994859 ] ] ] } },
{ "type": "Feature", "properties": { "id": "0", "layer": "polys_Zambia_evergreen_red_07", "path": "C:/Users/hssid/Downloads/drive-download-20250227T154022Z-001/polys_Zambia_evergreen_red_07.geojson" }, "geometry": { "type": "Polygon", "coordinates": [ [ [ 32.987693386505931, -13.997992681308189 ], [ 32.98897011799702, -13.997992681308189 ], [ 32.98897011799702, -13.996941245198208 ], [ 32.987693386505931, -13.996941245198208 ], [ 32.987693386505931, -13.997992681308189 ] ] ] } },
{ "type": "Feature", "properties": { "id": "1", "layer": "polys_Zambia_evergreen_red_07", "path": "C:/Users/hssid/Downloads/drive-download-20250227T154022Z-001/polys_Zambia_evergreen_red_07.geojson" }, "geometry": { "type": "Polygon", "coordinates": [ [ [ 32.977447348069042, -13.996889193780698 ], [ 32.977973061035961, -13.996889193780698 ], [ 32.977973061035961, -13.996410320186436 ], [ 32.977447348069042, -13.996410320186436 ], [ 32.977447348069042, -13.996889193780698 ] ] ] } },
{ "type": "Feature", "properties": { "id": "2", "layer": "polys_Zambia_evergreen_red_07", "path": "C:/Users/hssid/Downloads/drive-download-20250227T154022Z-001/polys_Zambia_evergreen_red_07.geojson" }, "geometry": { "type": "Polygon", "coordinates": [ [ [ 32.967223198654061, -13.991061498240715 ], [ 32.968392641784554, -13.991061498240715 ], [ 32.968392641784554, -13.989952772145164 ], [ 32.967223198654061, -13.989952772145164 ], [ 32.967223198654061, -13.991061498240715 ] ] ] } },
{ "type": "Feature", "properties": { "id": "0", "layer": "polys_Zambia_evergreen_red_08", "path": "C:/Users/hssid/Downloads/drive-download-20250227T154022Z-001/polys_Zambia_evergreen_red_08.geojson" }, "geometry": { "type": "Polygon", "coordinates": [ [ [ 32.808505998955276, -13.352414742340711 ], [ 32.808978067741897, -13.352414742340711 ], [ 32.808978067741897, -13.351976311741469 ], [ 32.808505998955276, -13.351976311741469 ], [ 32.808505998955276, -13.352414742340711 ] ] ] } },
{ "type": "Feature", "properties": { "id": "1", "layer": "polys_Zambia_evergreen_red_08", "path": "C:/Users/hssid/Downloads/drive-download-20250227T154022Z-001/polys_Zambia_evergreen_red_08.geojson" }, "geometry": { "type": "Polygon", "coordinates": [ [ [ 32.809576200352218, -13.35220335625835 ], [ 32.809831010208633, -13.35220335625835 ], [ 32.809831010208633, -13.351934556404784 ], [ 32.809576200352218, -13.351934556404784 ], [ 32.809576200352218, -13.35220335625835 ] ] ] } },
{ "type": "Feature", "properties": { "id": "2", "layer": "polys_Zambia_evergreen_red_08", "path": "C:/Users/hssid/Downloads/drive-download-20250227T154022Z-001/polys_Zambia_evergreen_red_08.geojson" }, "geometry": { "type": "Polygon", "coordinates": [ [ [ 32.799895649786421, -13.350470831794892 ], [ 32.801081186171004, -13.350470831794892 ], [ 32.801081186171004, -13.349614840611222 ], [ 32.799895649786421, -13.349614840611222 ], [ 32.799895649786421, -13.350470831794892 ] ] ] } },
{ "type": "Feature", "properties": { "id": "3", "layer": "polys_Zambia_evergreen_red_08", "path": "C:/Users/hssid/Downloads/drive-download-20250227T154022Z-001/polys_Zambia_evergreen_red_08.geojson" }, "geometry": { "type": "Polygon", "coordinates": [ [ [ 32.794561015710379, -13.367166342448209 ], [ 32.795644628152395, -13.367166342448209 ], [ 32.795644628152395, -13.366263438529982 ], [ 32.794561015710379, -13.366263438529982 ], [ 32.794561015710379, -13.367166342448209 ] ] ] } }
]
}
